"ID Number",Office Name,Address 1,City,State,Zip,DMA,Latitude,Longitude,GeoLocType,DNUC
MED-100399,Quality Care Family Practice,475 E Main St,Patchogue,NY,11772,New York,40.7669632,-72.9976777,ROOFTOP,no
MED-100282,Hospital of St Rapheal Facility Physicians,2 Ivy Brook Rd,Shelton,CT,06484,New York,41.2921021,-73.0876199,ROOFTOP,no
MED-100413,Dr. Domenic W. Casablanca,4 Corporate Dr,Shelton,CT,06484,New York,41.276514,-73.1309282,ROOFTOP,no
MED-100380,Dr. Emmanuel St. Louis,905 Uniondale Ave,Uniondale,NY,11553,New York,40.6915142,-73.5958299,ROOFTOP,no
MED-101147,Dr. Chisara Adonai,1444 Masschusetts Ave,Troy,NY,12180,New York,42.742856,-73.675151,ROOFTOP,no
MED-100119,Westchester Health Associates,60 Golden Bridge Rd,Katonah,NY,10536,New York,41.264142,-73.678567,ROOFTOP,no
MED-100880,"Michael Afshri, MD",216-04 Union Turnpike,Bayside,NY,11364,New York,40.7343004,-73.7548808,RANGE_INTERPOLATED,no
MED-100238,Westchester Institute for Human Development,20 Plaza West,Valhalla,NY,10595,New York,41.0834171,-73.807515,ROOFTOP,no
MED-100745,Westchester Institute for Human Development,20 Plaza West,Valhalla,NY,10595,New York,41.0834171,-73.807515,ROOFTOP,no
MED-101181,Flushing Medical Center,140-14 Cherry Ave,Flushing,NY,11355,New York,40.754025,-73.822124,ROOFTOP,no
MED-100122,Atac Medical Care,1619 Pelham Pkwy,Bronx,NY,10468,New York,40.857826,-73.839291,ROOFTOP,no
MED-100154,Delany Sisters Health Center/233rd Medical Center,821-7 E 233rd St,Bronx ,NY,10466,New York,40.8922891,-73.8536565,RANGE_INTERPOLATED,no
MED-100141,Dr. Joseph Huang,4355 Furman Ave,Bronx,NY,10466,New York,40.896642,-73.854831,ROOFTOP,no
MED-100155,Soundview Health Center,731 White Plains Rd,Bronx,NY,10473,New York,40.8205376,-73.8579442,RANGE_INTERPOLATED,no
MED-100894,Soundview Health Center,731 White Plains Rd,Bronx,NY,10473,New York,40.8205376,-73.8579442,RANGE_INTERPOLATED,no
MED-100129,Dr. Evan Levine,955 Yonkers Ave,Yonkers,NY,10710,New York,40.9172506,-73.8593409,ROOFTOP,no
MED-100140,Cardiology Unlimited,3131 Grand Concourse ,Bronx,NY,10468,New York,40.8751984,-73.8865327,RANGE_INTERPOLATED,no
MED-100895,A-Z Medical,3965 Sedgwick Ave,Bronx,NY,10463,New York,40.882793,-73.889751,ROOFTOP,no
MED-100130,Park Avenue Family Practice,102 Park Ave,Yonkers,NY,10703,New York,40.9436294,-73.8911561,ROOFTOP,no
MED-100737,Park Avenue Family Practice,102 Park Ave,Yonkers,NY,10703,New York,40.9436294,-73.8911561,ROOFTOP,no
MED-100969,Broadway Medical Services,75 S Broadway,Yonkers,NY,10701,New York,40.9314173,-73.8989381,ROOFTOP,no
MED-100128,Dr. Nadem Sayegh,226A W 238th St,Bronx,NY,10074,New York,40.884655,-73.900128,ROOFTOP,no
MED-100125,Dr. Ghazanfar S. Abdullah,108 E 183rd St,Bronx,NY,10453,New York,40.857721,-73.901559,ROOFTOP,no
MED-100123,Dr. Rajesh Patel,2106 Grand Concourse,Bronx,NY,10458,New York,40.8543348,-73.9018262,RANGE_INTERPOLATED,no
MED-100145,Bailey Avenue Medical,2860 Bailey Ave,Bronx,NY,10463,New York,40.8749331,-73.90443,ROOFTOP,no
MED-100963,Heights Medical Care,3636 Fieldston Rd,Riverdale,NY,10463,New York,40.8864128,-73.9067283,RANGE_INTERPOLATED,no
MED-100387,Karibandi Family Practice,471 Hart St,Brooklyn,NY,11221,New York,40.695236,-73.931859,ROOFTOP,no
MED-100120,Urgent Medical Care,4120 Broadway,New York,NY,10033,New York,40.8457019,-73.9384697,ROOFTOP,no
MED-100245,Greenpoint Medical,146 Norman Ave,Brooklyn,NY,11222,New York,40.7263517,-73.9486995,ROOFTOP,no
MED-100407,Dr. Gerald Valme,1010 Ocean Ave,Brooklyn,NY,11226,New York,40.637882,-73.959016,ROOFTOP,no
MED-101129,"Brooklyn Family Medical Care, PC",60 Plaza St E,Brooklyn,NY,11238,New York,40.6742792,-73.9686821,ROOFTOP,no
MED-100379,Dr. Philip Varriale ,222 E 19th St,New York,NY,10003,New York,40.735812,-73.984144,ROOFTOP,no
MED-100797,Dr. Nanjappa Ravi & Dr. Victoria Perez,354 Old Hook Rd,Westwood,NJ,07675,New York,40.9827398,-74.0096896,ROOFTOP,no
MED-101338,Atlantic Women's Medical Center,240 Wall St,West Long Branch,NJ,07764,New York,40.2842259,-74.02251,ROOFTOP,no
MED-100852,Pax Medical,537 Blooming Grove Tpk,New Windsor,NY,12553,New York,41.462936,-74.040228,ROOFTOP,no
MED-100272,Dr. Robert DeMartin,1330 Laurel Ave,Sea Girt,NJ,08758,New York,40.13696,-74.061543,ROOFTOP,no
MED-101335,Premier Healthcare Associates and Atlantic OBGYN,1631 Rte 88 W,Brick,NJ,08724,New York,40.075915,-74.135667,ROOFTOP,no
MED-100920,Orange Medical Group,310 Central Ave,East Orange,NJ,07018,New York,40.755282,-74.214473,ROOFTOP,no
MED-100872,Women's Health Associates of Central Jersey,705 Candlewood Commons,Howell,NJ,07731,New York,40.1477857,-74.2242061,RANGE_INTERPOLATED,no
MED-101095,Town Medical Associates ,271 Grove Ave,Verona,NJ,07044,New York,40.844181,-74.236326,ROOFTOP,no
MED-101096,Town Medical Associates ,271 Grove Ave,Verona,NJ,07044,New York,40.844181,-74.236326,ROOFTOP,no
MED-100841,Dr. Anne Maria Gracia,59 Main St,West Orange,NJ,07052,New York,40.777752,-74.238148,ROOFTOP,no
MED-101102,"Mario Capio, MD",230 W Pkwy,Pompton Plains,NJ,07444,New York,40.9816225,-74.307302,RANGE_INTERPOLATED,no
MED-101275,Changebridge Medical Associates,170 Changebridge Rd,Montville,NJ,07045,New York,40.88985,-74.3656859,ROOFTOP,no
MED-101224,Soboba Indian Health Center,607 Donna Way,San Jacinto,CA,92583,Los Angeles,33.781945,-116.936696,ROOFTOP,no
MED-101230,Soboba Indian Health Center,607 Donna Way,San Jacinto,CA,92583,Los Angeles,33.781945,-116.936696,ROOFTOP,no
MED-101188,"Dipak G. Vora, MD",705 E Virginia Way,Barstow,CA,92311,Los Angeles,34.8881991,-117.0185456,ROOFTOP,no
MED-101180,Barstow Family Care,705 E Virginia Way,Barstow,CA,92311,Los Angeles,34.8881991,-117.0185456,ROOFTOP,no
MED-101193,Dr. Mike's Walk In Clinic ,12143 Navajo Rd,Apple Valley,CA,92308,Los Angeles,34.47239,-117.189714,ROOFTOP,no
MED-101171,"George Villanueva, MD",126 Avacado Ave,Perris,CA,92571,Los Angeles,33.8103628,-117.2245228,ROOFTOP,no
MED-101194,Dr. Mike's Walk In Clinic,15626 Hesperia Rd,Victorville,CA,92395,Los Angeles,34.534666,-117.291891,ROOFTOP,no
MED-100624,"R. S. Bir MD, Inc.",280 N Riverside Ave,Rialto,CA,92376,Los Angeles,34.1039193,-117.3706773,ROOFTOP,no
MED-101155,Sierra San Antonio Urgent Care,16465 Sierra Lakes Pkwy,Fontana,CA,92336,Los Angeles,34.137366,-117.445583,ROOFTOP,no
MED-101170,"Jasmine Leong, MD",1280 Corona Pointe Ct,Corona,CA,92879,Los Angeles,33.870069,-117.540711,ROOFTOP,no
MED-101178,"Ravinder Singh, MD",8231 Rochester Ave,Rancho Cucamonga,CA,91730,Los Angeles,34.103967,-117.544581,ROOFTOP,no
MED-101187,Dr. Jack Cochran,720 Magnolia Ave,Corona,CA,92879,Los Angeles,33.857874,-117.555311,ROOFTOP,no
MED-100605,Dr. Susan Biegel,1113 Alta Ave,Upland,CA,91786,Los Angeles,34.108319,-117.632653,ROOFTOP,no
MED-101053,Inland Pulmonary Medical Group,637 N 13th Ave,Upland,CA,91786,Los Angeles,34.101376,-117.634166,ROOFTOP,no
MED-100497,Dr. Ghassan Hadi,1060 E Foothill Blvd,Upland,CA,91789,Los Angeles,34.1070519,-117.6385113,RANGE_INTERPOLATED,no
MED-101279,The Grand Medical Group,703 E St E,Ontario,CA,91764,Los Angeles,34.068582,-117.641154,ROOFTOP,no
MED-100397,Inland Pulmonary,9655 Monte Vista Ave,Montclair,CA,91763,Los Angeles,34.0799329,-117.696583,ROOFTOP,no
MED-100680,Grand Medical Group,4950 San Bernardino St,Montclair,CA,91763,Los Angeles,34.07874,-117.696976,ROOFTOP,no
MED-100688,The Grand Medi-Spa,13768 Roswell Ave,Chino,CA,91710,Los Angeles,34.003471,-117.722497,ROOFTOP,no
MED-101195,"Leon Steinberg, MD",801 N Tustin Ave,Santa Ana,CA,92705,Los Angeles,33.752566,-117.8340657,ROOFTOP,no
MED-101126,Your Family Care Center,801 N Tustin Blvd,Tustin,CA,92705,Los Angeles,33.752566,-117.8340657,ROOFTOP,no
MED-100661,"Dr. Velez, Florentino, Valle",805 W La Veta,Orange,CA,92868,Los Angeles,33.781488,-117.860301,ROOFTOP,no
MED-100538,Woodglen Medical Group,315 E Rte 66,Glendora,CA,91740,Los Angeles,34.1288304,-117.8607301,RANGE_INTERPOLATED,no
MED-100539,Woodglen Medical Group,315 E Rte 66,Glendora,CA,91740,Los Angeles,34.1288304,-117.8607301,RANGE_INTERPOLATED,no
MED-101068,Newport Urgent Care,1000 Bristol St N,Newport Beach,CA,92660,Los Angeles,33.657701,-117.866312,ROOFTOP,no
MED-100459,Dr. David Shek,1401 S Anaheim Blvd,Anaheim,CA,92805,Los Angeles,33.813713,-117.907154,ROOFTOP,no
MED-101043,Newport Mesa Medical Group,275 Victoria St,Costa Mesa,CA,92627,Los Angeles,33.652587,-117.9111713,ROOFTOP,no
MED-101146,Harbor Heart,1400 N Harbor Blvd,Fullerton,CA,92835,Los Angeles,33.884382,-117.9255978,RANGE_INTERPOLATED,no
MED-100544,Family & General Practice,11180 Warner Ave,Fountain Valley,CA,92708,Los Angeles,33.71572,-117.933375,ROOFTOP,no
MED-101090,Castellano Health Institute,12460 Euclid Dr,Garden Grove,CA,92840,Los Angeles,33.781784,-117.940697,ROOFTOP,no
MED-100279,Orange County First Medical Group,1771 W Romneya Dr,Anaheim,CA,92801,Los Angeles,33.85092,-117.94456,ROOFTOP,no
MED-100302,Dr. Harvey Yung,1781 W Romneya Dr,Anaheim,CA,92801,Los Angeles,33.850951,-117.944742,ROOFTOP,no
MED-100168,Coast Pulmonary Internal Medical Associates,9940 Talbert Ave,Fountain Valley,CA,92708,Los Angeles,33.701664,-117.9554552,RANGE_INTERPOLATED,no
MED-100563,Walk In Medical Care,18326 Pioneer Blvd,Artesia,CA,90701,Los Angeles,33.8649427,-118.081997,ROOFTOP,no
MED-100259,Dr. Geoffrey Dolan,3816 Woodruff Ave,Long Beach,CA,90808,Los Angeles,33.8281459,-118.115712,ROOFTOP,no
MED-100925,Cardio Medical Consultants,8327 Davis St,Downey,CA,90241,Los Angeles,33.9364204,-118.133953,ROOFTOP,no
MED-101252,California Family Physicians,11903 Downey Ave,Downey,CA,90242,Los Angeles,33.9319042,-118.1390937,ROOFTOP,no
MED-101047,Internal Medicine & Geriatrics,3420 W Beverly Blvd,Montebello,CA,90640,Los Angeles,34.0247895,-118.1411432,RANGE_INTERPOLATED,no
MED-100652,Dr. Arunpal Sehgal,3300 E South St,Long Beach,CA,90805,Los Angeles,33.859511,-118.153615,ROOFTOP,no
MED-100530,Dr. Alberto Wilches,7831 Jackson St,Paramount,CA,90723,Los Angeles,33.885664,-118.161691,ROOFTOP,no
MED-100262,Khemara Family Medical Group,1533 Alamitos Ave,Long Beach,CA,90813,Los Angeles,33.7870365,-118.1767315,ROOFTOP,no
MED-100562,Walk In Medical Care,3760 Atlantic Ave,Long Beach,CA,90807,Los Angeles,33.826315,-118.184594,ROOFTOP,no
MED-100294,Dr. George M. Jayatilaka,1045 Atlantic Ave,Long Beach,CA,90813,Los Angeles,33.780235,-118.185393,ROOFTOP,no
MED-100319,Cal-Care Medical Group,500 Willow St,Long Beach,CA,90806,Los Angeles,33.804138,-118.187024,ROOFTOP,no
MED-100337,Panacea Health Care,2630 Pacific Ave,Long Beach,CA,90806,Los Angeles,33.8049289,-118.1936977,ROOFTOP,no
MED-100252,Pacific Urgent Care,2777 Pacific Ave,Long Beach,CA,90806,Los Angeles,33.8077345,-118.1939131,ROOFTOP,no
MED-100299,Dr. Kirshna N. Manvi,2777 Pacific Ave,Long Beach,CA,90806,Los Angeles,33.8077345,-118.1939131,ROOFTOP,no
MED-100324,Multi Health Care,3175 E Firestone Blvd,South Gate,CA,90280,Los Angeles,33.955123,-118.2137455,ROOFTOP,no
MED-100307,Coastal Physicians Medical,824 E Carson St,Carson,CA,90745,Los Angeles,33.831052,-118.260617,ROOFTOP,no
MED-100453,Divine Grace Medical Clinic,23517 S Main St,Carson,CA,90745,Los Angeles,33.8114881,-118.2757108,ROOFTOP,no
MED-101098,Culver Health Associates,3831 Hughes Ave,Culver City,CA,90232,Los Angeles,34.0223129,-118.398343,ROOFTOP,no
MED-101142,Venice Culver Marina Medical Group,12212 W Washington Blvd,Los Angeles,CA,90066,Los Angeles,34.000043,-118.4283,ROOFTOP,no
MED-100838,Dr. Robert Buckingham,115 Pirie Rd,Ojai,CA,93023,Los Angeles,34.4426111,-119.2658364,RANGE_INTERPOLATED,no
MED-100840,Dr. Surendra Shah,5825 Broadway ,Merillville,IN,46410,Chicago,41.512237,-87.335629,ROOFTOP,no
MED-100889,New Town OBGYN,2200 Grant St,Gary,IN,46404,Chicago,41.578444,-87.356555,ROOFTOP,no
MED-100856,East Side Medical Health Center,10551 S Ewing Ave,Chicago,IL,60617,Chicago,41.7031319,-87.5351178,ROOFTOP,no
MED-101094,Pro Health Care Center,10512 S Ewing Ave,Chicago,IL,60617,Chicago,41.7040888,-87.5354253,ROOFTOP,no
MED-100888,AMG Medical Group,3550 E 118th St,Chicago,IL,60617,Chicago,41.681244,-87.537771,ROOFTOP,no
MED-100994,Tellez Medical Group,9206 S Commercial Ave,Chicago,IL,60617,Chicago,41.727874,-87.551511,ROOFTOP,no
MED-100824,Horizon Healthcare,1600 167th St,Calumet City,IL,60409,Chicago,41.5864961,-87.5589588,RANGE_INTERPOLATED,no
MED-100801,Dr. Birinder Marwah,400 E 41st St,Chicago,IL,60653,Chicago,41.820872,-87.614558,ROOFTOP,no
MED-100902,Michael Reese Physicians Group,2555 S Martin Luther King Dr,Chicago,IL,60616,Chicago,41.8454165,-87.6172781,RANGE_INTERPOLATED,no
MED-101119,111th & State Medical Center,11101 S State St,Chicago,IL,60628,Chicago,41.6925743,-87.6230634,RANGE_INTERPOLATED,no
MED-101114,Mercy Medical in Chatham,8541 S State St,Chicago,IL,60619,Chicago,41.7387497,-87.6241686,RANGE_INTERPOLATED,no
MED-100255,Millennium Park Medical Associates,30 S Michigan Ave,Chicago,IL,60603,Chicago,41.8811023,-87.6245792,ROOFTOP,no
MED-101082,S. Shah & Associates ,1223 W 87th St,Chicago,IL,60620,Chicago,41.7357603,-87.6542153,ROOFTOP,no
MED-100997,Broadway Medical Group,4826 N Broadway Ave,Chicago,IL,60640,Chicago,41.9698563,-87.6599311,ROOFTOP,no
MED-100805,Kankakee Internal Medicine Group,739 N Dixie Hwy,Momence,IL,60954,Chicago,41.1693007,-87.6629066,RANGE_INTERPOLATED,no
MED-101085,Highland Medical Center,8201 S Ashland Ave,Chicago,IL,60620,Chicago,41.7448744,-87.6631871,RANGE_INTERPOLATED,no
MED-101185,Family Physicians of Lakeview,3002 N Ashland Ave,Chicago,IL,60657,Chicago,41.9365184,-87.6687899,ROOFTOP,no
MED-101097,Prieto & Associates,1810 W Chicago Ave,Chicago,IL,60622,Chicago,41.8961107,-87.6727327,ROOFTOP,no
MED-100996,"K. J. Philip, MD",800 Austin St,Evanston,IL,60202,Chicago,42.0251715,-87.6828189,ROOFTOP,no
MED-100768,Boffa Surgical Group,2222 W Division St,Chicago,IL,60622,Chicago,41.903283,-87.683365,ROOFTOP,no
MED-100778,Apantaku Clinics LTD,2222 W Division St,Chicago,IL,60622,Chicago,41.903283,-87.683365,ROOFTOP,no
MED-101266,Dr. Melnik Iouri,809 N Western Ave,Chicago,IL,60622,Chicago,41.8961403,-87.6866863,ROOFTOP,no
MED-100709,Western-Foster Medical Clinic,5214 N Western Ave,Chicago,IL,60625,Chicago,41.9766873,-87.6893607,ROOFTOP,no
MED-100587,Dr. Bansi Sharma,17577 S Kedize Ave,Hazel Crest,IL,60429,Chicago,41.5704009,-87.693932,ROOFTOP,no
MED-100600,Reproductive Health Associates,17850 S Kedzie Ave,Hazel Crest,IL,60429,Chicago,41.565441,-87.696725,ROOFTOP,no
MED-100814,Ermias Tilahun M.D. S.C.,2740 W Foster Ave,Chicago,IL,60625,Chicago,41.9759967,-87.6978356,ROOFTOP,no
MED-100712,"Elizabeth Anderson, MD",2740 W Foster Ave,Chicago,IL,60625,Chicago,41.9759967,-87.6978356,ROOFTOP,no
MED-101021,Boffa Surgical Group,5140 N California Ave,Chicago,IL,60625,Chicago,41.9758389,-87.6992293,ROOFTOP,no
MED-100702,All Women's Medical Center,3140 W Irving Park Rd,Chicago,IL,60618,Chicago,41.9540216,-87.7071829,ROOFTOP,no
MED-101026,Zapata MEdical Center,3743 W Fullerton Ave,Chicago,IL,60647,Chicago,41.9244342,-87.7211876,ROOFTOP,no
MED-101214,Mercy Medical on Pulaski,5525 S Pulaski Rd,Chicago,IL,60629,Chicago,41.7924336,-87.7231073,RANGE_INTERPOLATED,no
MED-101198,Mercy Medical ,4321 S Pulaski Rd,Chicago,IL,60632,Chicago,41.8145141,-87.7237063,RANGE_INTERPOLATED,no
MED-100431,Cardiothoracic and Vascular Surgical Associates,4400 W 95 St,Oak Lawn,IL,60453,Chicago,41.7203051,-87.7311276,RANGE_INTERPOLATED,no
MED-100427,16th Medical Center,4304 W 16th St,Chicago,IL,60623,Chicago,41.858793,-87.7324683,RANGE_INTERPOLATED,no
MED-100233,Dr. Abdulkareem Khudeira,4651 W 79th St,Chicago,IL,60652,Chicago,41.7491265,-87.7382065,RANGE_INTERPOLATED,no
MED-101084,Chicago Reach Clinic,4501 W Augusta Blvd,Chicago,IL,60620,Chicago,41.8988134,-87.7385069,RANGE_INTERPOLATED,no
MED-100882,Robledo Medical & Cosmetic Treatment Center,4711 W Golf Rd,Skokie,IL,60076,Chicago,42.0552091,-87.7443872,RANGE_INTERPOLATED,no
MED-101075,Skokie Family Clinic,4726 W Oakton St,Skokie,IL,60076,Chicago,42.0262765,-87.7461917,RANGE_INTERPOLATED,no
MED-100722,Cicero Prompt Care & Family Medical Center,3000 N Cicero Ave,Chicago,IL,60641,Chicago,41.9353156,-87.7469392,ROOFTOP,no
MED-100900,Orchard Medical Group,4905 Old Orchard Center,Skokie,IL,60077,Chicago,42.0617465,-87.7490396,RANGE_INTERPOLATED,no
MED-100898,Women's Health Group,4905 Old Orchard ,Skokie,IL,60076,Chicago,42.0624164,-87.7493437,RANGE_INTERPOLATED,no
MED-101127,Oakton Health Center,4860 W Oakton St,Skokie,IL,60077,Chicago,42.0264535,-87.749757,ROOFTOP,no
MED-101039,Diversey-Long Medical Center,5356 W Diversey Ave,Chicago,IL,60639,Chicago,41.931604,-87.761065,ROOFTOP,no
MED-101161,Clinica San Lazaro,5712 W 35th St,Cicero,IL,60804,Chicago,41.829312,-87.766521,ROOFTOP,no
MED-100705,Chicago Research Center,3401 N Central Ave,Chicago,IL,60634,Chicago,41.9422447,-87.7666069,RANGE_INTERPOLATED,no
MED-100919,"Paul Oswiecimski, MD",13305 S Ridgeland Ave,Palos Heights,IL,60463,Chicago,41.6487342,-87.7767385,ROOFTOP,no
MED-100958,Jefferson Park Medical Group,5906 N Milwaukee Ave,Chicago,IL,60646,Chicago,41.9887939,-87.7799835,ROOFTOP,no
MED-101160,Horizon Healthcare ,6703 W 159th St,Tinley Park,IL,60477,Chicago,41.6024106,-87.78275,RANGE_INTERPOLATED,no
MED-100724,Midtown Physicians,6538 W Cermak Rd,Berwyn,IL,60402,Chicago,41.8507383,-87.787541,RANGE_INTERPOLATED,no
MED-100446,Dr. Smita J. Shah,6905-A W Carmak Rd,Berwyn,IL,60402,Chicago,41.8505163,-87.7960697,RANGE_INTERPOLATED,no
MED-100905,Issan Health Care Associates,7604 W 63rd St,Summit ,IL,60501,Chicago,41.7772325,-87.8059156,RANGE_INTERPOLATED,no
MED-101000,Baluchi Medical Group,7435 W Madison St,Forest Park,IL,60130,Chicago,41.879936,-87.811316,ROOFTOP,no
MED-101116,Family Medicine Associates,7900 N Milwaukee Ave,Niles,IL,60714,Chicago,42.024746,-87.815486,ROOFTOP,no
MED-101122,Dr. John Oh,241 Golf Mill Shopping Center,Niles,IL,60714,Chicago,42.051528,-87.83768,GEOMETRIC_CENTER,no
MED-100669,Alma Medical Center,1411 S 5th Ave,Maywood,IL,60153,Chicago,41.8760193,-87.8387127,RANGE_INTERPOLATED,no
MED-100363,Consultants in Cardiovascular Medicine,675 W North Ave,Melrose Park,IL,60160,Chicago,41.9074294,-87.8426101,ROOFTOP,no
MED-100372,Clinical Cardiology Consultants,675 W North Ave,Melrose Park,IL,60160,Chicago,41.9074294,-87.8426101,ROOFTOP,no
MED-100723,Midtown Physicians,675 W North Ave,Melrose Park,IL,60160,Chicago,41.9074294,-87.8426101,ROOFTOP,no
MED-100683,The Center for Women & Family Practice,1111 Superior St,Melrose Park,IL,60160,Chicago,41.8925201,-87.8470704,RANGE_INTERPOLATED,no
MED-100491,Dr. Peter EuPierre,1111 Superior St,Melrose Park,IL,60160,Chicago,41.8925201,-87.8470704,RANGE_INTERPOLATED,no
MED-100802,Women's Health Specialists,1875 Dempster St,Park Ridge,IL,60068,Chicago,42.038564,-87.848749,ROOFTOP,no
MED-100819,Life Medical S.C.,1875 W Dempster St,Park Ridge,IL,60068,Chicago,42.038564,-87.848749,ROOFTOP,no
MED-101025,Parkside Obstetrics Gynecology & infertility,1875 Dempster St,Park Ridge,IL,60068,Chicago,42.038564,-87.848749,ROOFTOP,no
MED-100366,The Center for Women,1419 W Lake St,Melrose Park,IL,60160,Chicago,41.892166,-87.8506685,RANGE_INTERPOLATED,no
MED-101074,Brook Park Medical Center,3101 S Maple Ave,Brookfield,IL,60513,Chicago,41.83458,-87.851437,ROOFTOP,no
MED-100910,Family Medicine Associates,375 N Wall Street,Kankakee,IL,60901,Chicago,41.1240746,-87.8826006,RANGE_INTERPOLATED,no
MED-101120,Primary Health Associates,12701 W 143rd St,Homer Glen,IL,60491,Chicago,41.628322,-87.929027,ROOFTOP,no
MED-100700,Dr Harcharan & Charanjit Kalsi,1200 S York Rd,Elmhurst,IL,60126,Chicago,41.865023,-87.932269,ROOFTOP,no
MED-100675,Mokena Family Physicians,11243 W LaPorte Rd,Mokena,IL,60448,Chicago,41.5325139,-87.9431446,RANGE_INTERPOLATED,no
MED-101182,Aziz Medical Center,622 N Addison Rd,Villa Park,IL,60181,Chicago,41.9017735,-87.9885114,RANGE_INTERPOLATED,no
MED-100358,Naperville Internist,3825 S Highland Ave,Downers Grove,IL,60515,Chicago,41.81769,-88.008811,ROOFTOP,no
MED-100726,Our OBGYN S.C.,3825 Highland Ave 2,Downers Grove,IL,60515,Chicago,41.81769,-88.008811,ROOFTOP,no
MED-101280,Women's Health Specialists of Grays Lake,1475 E Belvidere Rd,Grayslake,IL,60030,Chicago,42.337833,-88.011324,ROOFTOP,no
MED-101011,Woodridge Clinic,7530 S Woodward Ave,Woodridge,IL,60517,Chicago,41.749355,-88.031436,ROOFTOP,no
MED-100359,Heartland Primary Care,215 Remington Blvd,Bolingbrook,IL,60440,Chicago,41.68365,-88.075204,ROOFTOP,no
MED-100368,Dr. Vinod Motiani,404 W Boughton Rd,Bolingbrook,IL,60440,Chicago,41.7082157,-88.0833531,RANGE_INTERPOLATED,no
MED-100995,Hakim Healthcare,1325 W Jefferson,Joliet,IL,60435,Chicago,41.5229407,-88.1147032,RANGE_INTERPOLATED,no
MED-101018,Premier Physicians,1280 Windham Pkwy,Romeoville,IL,60446,Chicago,41.662861,-88.123791,ROOFTOP,no
MED-101203,Clinical Associates in Medicine,330 N Madison St,Joliet,IL,60435,Chicago,41.528972,-88.133913,ROOFTOP,no
MED-100729,JRC Medical Clinic,1601 Tanglewood Ave,Hanover Park,IL,60133,Chicago,42.0041876,-88.1450802,ROOFTOP,no
MED-100357,Naperville Internist,640 S Washington St,Naperville,IL,60540,Chicago,41.766744,-88.147642,ROOFTOP,no
MED-101283,DuPage Medical Group,100 Spalding DR,Naperville,IL,60540,Chicago,41.7613535,-88.1522773,RANGE_INTERPOLATED,no
MED-100877,Valley Women's Health,2121 Ridge Ave,Aurora,IL,60564,Chicago,41.72933,-88.2618413,RANGE_INTERPOLATED,no
MED-100195,Mercer Internal Medicine,2480 Pennington Rd,Pennington,NJ,08534,Philadelphia,40.302325,-74.782501,ROOFTOP,no
MED-100955,"Rafael Hasbun, MD",813 E Gate Dr,Mt. Laurel,NJ,08054,Philadelphia,39.9428636,-74.9525825,ROOFTOP,no
MED-101307,Garden State OBGYN,2401 Evesham Rd,Voorhees,NJ,08043,Philadelphia,39.864807,-74.953979,ROOFTOP,no
MED-100116,North Willow Grove Family Medicine,2701 Blair Mill Rd,Willow Grove,PA,19090,Philadelphia,40.164995,-75.132257,ROOFTOP,no
MED-100630,Dr. Michael Rogers,831 Kings Hwy,West Deptford,NJ,08096,Philadelphia,39.828,-75.168478,ROOFTOP,no
MED-100853,Dr. Wanzhu Tang,858 Welsh Rd,Ambler,PA,19002,Philadelphia,40.1750212,-75.1735927,RANGE_INTERPOLATED,no
MED-101037,Elmer Family Practice,330 W Front St,Elmer,NJ,08318,Philadelphia,39.591048,-75.176292,ROOFTOP,no
MED-100904,Presidential Medical Center,111 N Presidential Blvd,Philiadelphia,PA,19004,Philadelphia,40.011972,-75.213805,ROOFTOP,no
MED-100847,Dr. Stanley Walker,21 Corporate Dr,Easton,PA,18045,Philadelphia,40.686089,-75.2544659,ROOFTOP,no
MED-100480,Dr. James Hart,3407 Garrett Rd,Drexel Hill,PA,19026,Philadelphia,39.9450974,-75.2955977,RANGE_INTERPOLATED,no
MED-100855,"Kim Kuhar, MD",164 W Main St,Silverdale,PA,18962,Philadelphia,40.3543187,-75.3058889,RANGE_INTERPOLATED,no
MED-100875,Everest Medical Care,2010 W Chester Pike,Havertown,PA,19083,Philadelphia,39.9763304,-75.3326178,RANGE_INTERPOLATED,no
MED-100264,Campus Medical Center,422 E 22nd St,Chester,PA,19013,Philadelphia,39.8669611,-75.3619299,RANGE_INTERPOLATED,no
MED-100500,Women's Healthcare Group,85 Old Eagle School Rd,Strafford,PA,19087,Philadelphia,40.0488209,-75.403629,ROOFTOP,no
MED-100556,Zarraga and Zarraga Internal Medicine Practice,219 S Walnut St,Milford,DE,19963,Philadelphia,38.9081397,-75.4289178,RANGE_INTERPOLATED,no
MED-100300,Ware Medical Associates,400 Cherry Tree Rd,Aston,PA,19014,Philadelphia,39.8488966,-75.4384945,RANGE_INTERPOLATED,no
MED-100576,Dr. Domingo G. Aviado,18 S Dupont Blvd,Milford,DE,19963,Philadelphia,38.914861,-75.444065,ROOFTOP,no
MED-100498,Women's Healthcare Group,599 Arcola Rd,Collegeville,PA,19426,Philadelphia,40.1653104,-75.4742986,ROOFTOP,no
MED-100036,Total Care Physicians,1320 Philadelphia Pike,Wilmington,DE,19809,Philadelphia,39.782389,-75.48132,ROOFTOP,no
MED-100577,Women for Women,325 W Central Ave,Malvern,PA,19355,Philadelphia,40.0419036,-75.4986675,RANGE_INTERPOLATED,no
MED-100499,Women's Healthcare Group,255 W Lancaster Ave,Paoli,PA,19301,Philadelphia,40.0440589,-75.5014583,ROOFTOP,no
MED-100799,"Women's Care Associates of Dover, P.A",22 Old Rudnick Ln,Dover,DE,19901,Philadelphia,39.134293,-75.522811,ROOFTOP,no
MED-101204,Southern Medical Group of Dover,200 Banning St,Dover,DE,19904,Philadelphia,39.1535237,-75.5359011,ROOFTOP,no
MED-100348,Dr. John Hocutt,3521 Silverside Rd,Wilmington,DE,19810,Philadelphia,39.809031,-75.545458,ROOFTOP,no
MED-100041,Brandywine Medical Associates,1815 W 13th St,Wilmington,DE,19806,Philadelphia,39.7563224,-75.565952,RANGE_INTERPOLATED,no
MED-100346,Bancroft Family Care,1010 N Bancroft Pkwy,Wilimington,DE,19805,Philadelphia,39.755597,-75.570262,ROOFTOP,no
MED-100345,Family Practice of Greenhill,1010 N Bancroft Pkwy,Wilmington,DE,19805,Philadelphia,39.755597,-75.570262,ROOFTOP,no
MED-100180,"Internal Medicine Associates, PA",3105 Limestone Rd,Wilmington,DE,19808,Philadelphia,39.733221,-75.669679,ROOFTOP,no
MED-100040,Brandywine Medical Associates,2601 Annand Dr,Wilmington,DE,19808,Philadelphia,39.715965,-75.674927,ROOFTOP,no
MED-100039,Total Care Physicians,89 Omega Dr,Newark,DE,19713,Philadelphia,39.6921892,-75.676578,ROOFTOP,no
MED-100038,Total Care Physicians,92 Omega Dr,Newark,DE,19713,Philadelphia,39.6920972,-75.6771005,RANGE_INTERPOLATED,no
MED-100046,Whitford Family Practice,102 Schubert Dr,Dowingtown,PA,19335,Philadelphia,40.0309412,-75.6802519,RANGE_INTERPOLATED,no
MED-100037,Total Care Physicians,2600 Glasgow Ave,Newark,DE,19702,Philadelphia,39.599125,-75.745171,ROOFTOP,no
MED-100026,Cardiology Associates of West Reading,301 S 7th Ave,West Reading,PA,19611,Philadelphia,40.330638,-75.951865,ROOFTOP,no
MED-100400,Cornerstone Family Care,887 U.S. 84 W,Teague,TX,75860,Dallas-Ft. Worth,31.636551,-96.277588,MANUAL,yes
MED-101285,Health Texas BFMC Rockwall ,6435 S FM 549,Heath,TX,75032,Dallas-Ft. Worth,32.864212,-96.440535,ROOFTOP,no
MED-101319,Health Texas BFM Wylie,600 Cooper Dr,Wylie,TX,75098,Dallas-Ft. Worth,33.009752,-96.5453957,ROOFTOP,no
MED-101314,Health Texas BFMC Mesquite,1650 Republic Pkwy,Mesquite,TX,75150,Dallas-Ft. Worth,32.828629,-96.626194,ROOFTOP,no
MED-101315,Health Texas BFMC Mesquite,1650 Republic Pkwy,Mesquite,TX,75150,Dallas-Ft. Worth,32.828629,-96.626194,ROOFTOP,no
MED-101316,Health Texas BFMC Mesquite,1650 Republic Pkwy,Mesquite,TX,75150,Dallas-Ft. Worth,32.828629,-96.626194,ROOFTOP,no
MED-101304,Health Texas BFMC Mesquite,1650 Republic Pkwy,Mesquite,TX,75150,Dallas-Ft. Worth,32.828629,-96.626194,ROOFTOP,no
MED-100396,Vital Family Practice Center,1900 Oates Dr,Mesquite,TX,75150,Dallas-Ft. Worth,32.8360932,-96.6302276,ROOFTOP,no
MED-101327,Health Texas Internal Medicine Associates of McKinney,2251 El Dorado Pkwy,Mc Kinney,TX,75070,Dallas-Ft. Worth,33.170375,-96.646443,ROOFTOP,no
MED-101310,Health Texas DDA Garland,601 Clara Barton,Garland,TX,75042,Dallas-Ft. Worth,32.9176765,-96.6621258,ROOFTOP,no
MED-101288,Health Texas DDA Garland,601 Clara Barton,Garland,TX,75042,Dallas-Ft. Worth,32.9176765,-96.6621258,ROOFTOP,no
MED-101323,Health Texas Pulmonary & Critical Care Associates of Garland,700 Walter Reed Blvd,Garland,TX,75042,Dallas-Ft. Worth,32.9186338,-96.6634035,RANGE_INTERPOLATED,no
MED-100188,White Rock Internal Medicine,9330 Poppy Dr,Dallas,TX,75218,Dallas-Ft. Worth,32.8350303,-96.7061247,ROOFTOP,no
MED-101303,Health Texas BFMC Richardson,2520 N Central Expwy,Richardson,TX,75080,Dallas-Ft. Worth,32.9885491,-96.7100433,RANGE_INTERPOLATED,no
MED-101305,Health Texas BOFHC Texas Instruments,13350 TI Blvd,Dallas,TX,75243,Dallas-Ft. Worth,32.927591,-96.747558,ROOFTOP,no
MED-101284,Health Texas BFM Worth Street,4001 Worth St,Dallas,TX,75246,Dallas-Ft. Worth,32.791621,-96.775947,ROOFTOP,no
MED-101318,Health Texas Orthopedic Trauma Group,3409 Worth St,Dallas,TX,75246,Dallas-Ft. Worth,32.7883442,-96.7794204,ROOFTOP,no
MED-101317,Health Texas N. Texas Orthopedic Specialists,3600 Gaston Ave,Dallas,TX,75246,Dallas-Ft. Worth,32.7909696,-96.7803623,ROOFTOP,no
MED-101286,Health Texas MedProvider,3434 Swiss Ave,Dallas,TX,75204,Dallas-Ft. Worth,32.79131,-96.78213,ROOFTOP,no
MED-101291,Health Texas MedProvider,3434 Swiss Ave,Dallas,TX,75204,Dallas-Ft. Worth,32.79131,-96.78213,ROOFTOP,no
MED-101292,Health Texas MedProvider,3434 Swiss Ave,Dallas,TX,75204,Dallas-Ft. Worth,32.79131,-96.78213,ROOFTOP,no
MED-101293,Health Texas MedProvider,3434 Swiss Ave,Dallas,TX,75204,Dallas-Ft. Worth,32.79131,-96.78213,ROOFTOP,no
MED-101294,Health Texas MedProvider,3434 Swiss Ave,Dallas,TX,75204,Dallas-Ft. Worth,32.79131,-96.78213,ROOFTOP,no
MED-101295,Health Texas MedProvider,3434 Swiss Ave,Dallas,TX,75204,Dallas-Ft. Worth,32.79131,-96.78213,ROOFTOP,no
MED-101296,Health Texas MedProvider,3434 Swiss Ave,Dallas,TX,75204,Dallas-Ft. Worth,32.79131,-96.78213,ROOFTOP,no
MED-101297,Health Texas MedProvider,3434 Swiss Ave,Dallas,TX,75204,Dallas-Ft. Worth,32.79131,-96.78213,ROOFTOP,no
MED-101298,Health Texas MedProvider,3434 Swiss Ave,Dallas,TX,75204,Dallas-Ft. Worth,32.79131,-96.78213,ROOFTOP,no
MED-101299,Health Texas MedProvider,3434 Swiss Ave,Dallas,TX,75204,Dallas-Ft. Worth,32.79131,-96.78213,ROOFTOP,no
MED-101350,Health Texas dba The Dallas Heart Group,4716 Alliance Blvd,Plano,TX,75093,Dallas-Ft. Worth,33.0144143,-96.7918566,RANGE_INTERPOLATED,no
MED-101344,Health Texas dba The Dallas Heart Group,4716 Alliance Blvd,Plano,TX,75093,Dallas-Ft. Worth,33.0144143,-96.7918566,RANGE_INTERPOLATED,no
MED-101313,Health Texas BFM Legacy,4800 Hedgecoxe,Plano,TX,75024,Dallas-Ft. Worth,33.0826345,-96.7952028,ROOFTOP,no
MED-101326,Health Texas BFM Prosper,81 N Coleman St,Prosper,TX,75078,Dallas-Ft. Worth,33.2361815,-96.8019189,RANGE_INTERPOLATED,no
MED-101321,Health Texas BFM Frisco,2840 Legacy Dr,Frisco,TX,75034,Dallas-Ft. Worth,33.102041,-96.840509,ROOFTOP,no
MED-101346,Health Texas Physiatric Medicine Associates,505 N Hwy 77,Waxahachie,TX,75165,Dallas-Ft. Worth,32.408198,-96.843369,ROOFTOP,no
MED-101306,Health Texas BFMC Ellis County-Waxahachie,505 U.S. 77,Waxahachie,TX,75165,Dallas-Ft. Worth,32.3906833,-96.8483916,RANGE_INTERPOLATED,no
MED-101311,Health Texas BFMC Ellis County-Waxahachie,505 U.S. 77,Waxahachie,TX,75165,Dallas-Ft. Worth,32.3906833,-96.8483916,RANGE_INTERPOLATED,no
MED-101312,Health Texas BFMC Ellis County-Waxahachie,505 U.S. 77,Waxahachie,TX,75165,Dallas-Ft. Worth,32.3906833,-96.8483916,RANGE_INTERPOLATED,no
MED-101309,Health Texas BFMC Ellis County-Red Oak,301 E Ovilla Rd,Red Oak,TX,75154,Dallas-Ft. Worth,32.5318006,-96.8503694,RANGE_INTERPOLATED,no
MED-101322,Health Texas Waxahachie Surgical Specialists,1305 Jefferson St,Waxahachie,TX,75165,Dallas-Ft. Worth,32.394599,-96.863466,ROOFTOP,no
MED-101348,Health Texas - NTHCA Family Medicine,400 W Lyndon B Johnson Fwy,Irving,TX,75063,Dallas-Ft. Worth,32.911228,-96.951965,ROOFTOP,no
MED-101347,Health Texas dba Irving Interfaith Clinic,1302 Lane St,Irving,TX,75061,Dallas-Ft. Worth,32.8332,-96.962441,ROOFTOP,no
MED-101325,Health Texas BFMC Ellis County-Midlothian,1441 S Midlothian Pkwy,Midlothian,TX,76065,Dallas-Ft. Worth,32.4675299,-96.978531,ROOFTOP,no
MED-101308,Health Texas BFMC Ellis County-Midlothian,1441 S Midlothian Pkwy,Midlothian,TX,76065,Dallas-Ft. Worth,32.4675299,-96.978531,ROOFTOP,no
MED-101320,Health Texas BFM Lake Ridge,4927 Lake Ridge Pkwy,Grand Prairie,TX,75052,Dallas-Ft. Worth,32.6531659,-97.0430121,ROOFTOP,no
MED-101301,Health Texas BFMC Flower Mound,1110 Parker Square,Flower Mound,TX,75028,Dallas-Ft. Worth,33.0379436,-97.050993,RANGE_INTERPOLATED,no
MED-101354,Health Texas dba BFM Grapevine,2020 Texas 114 Frontage Rd,Grapevine,TX,76051,Dallas-Ft. Worth,32.9369014,-97.0972409,ROOFTOP,no
MED-100291,DP Family Care,3105 Ira E Woods Ave,Grapevine,TX,76051,Dallas-Ft. Worth,32.92016,-97.116689,ROOFTOP,no
MED-101324,Health Texas dba BFM Keller,601 S Main St,Keller,TX,76248,Dallas-Ft. Worth,32.9287365,-97.2539506,RANGE_INTERPOLATED,no
MED-101302,Health Texas BFMC Forth Worth,900 W Magnolia,Fort Worth,TX,76104,Dallas-Ft. Worth,32.7307799,-97.3334941,ROOFTOP,no
MED-101349,Health Texas dba Baylor Community Care,1650 W Magnolia,Ft. Worth,TX,76104,Dallas-Ft. Worth,32.7307604,-97.3433329,ROOFTOP,no
MED-101345,Health Texas  Internal Medicine Associates at Fort Worth,1250 8th Ave,Fort Worth,TX,76104,Dallas-Ft. Worth,32.7311022,-97.3437786,ROOFTOP,no
MED-100019,Central Fort Worth Clinic,1001 12th Ave,Fort Worth,TX,76104,Dallas-Ft. Worth,32.735191,-97.347234,ROOFTOP,no
MED-101342,Health Texas BFM Internal Medicine Associates of SW Fort Worth,5801 Oak Bend Trail,Fort Worth,TX,76132,Dallas-Ft. Worth,32.667089,-97.39964,MANUAL,yes
MED-101331,Health Texas MFMC Weatherford,2035 Ft. Worth Hwy,Weatherford,TX,76086,Dallas-Ft. Worth,32.7569053,-97.7462683,RANGE_INTERPOLATED,no
MED-100190,Tassajara Critical Care,5401 Norris Canyon Road,San Ramon,CA,94587,San Francisco-Oak-San Jose,37.777207,-121.958166,ROOFTOP,no
MED-100018,Dr. Robert C. Ang,500 E Remington Dr,Sunnyvale,CA,94087,San Francisco-Oak-San Jose,37.358261,-122.02807,ROOFTOP,no
MED-100711,Advanced Cardiovascular Specialists,2490 Hospital Dr,Mountain View,CA,94040,San Francisco-Oak-San Jose,37.3700944,-122.0821606,ROOFTOP,no
MED-100126,Cardiovascular Associates of Marin & SF,2 Bon Air,Larkspur,CA,94939,San Francisco-Oak-San Jose,37.943291,-122.539077,ROOFTOP,no
MED-100735,Cardiovascular Associates Of Marin & SF,2 Bon Air,Larkspur,CA,94939,San Francisco-Oak-San Jose,37.943291,-122.539077,ROOFTOP,no
MED-100736,Cardiovascular Associates Of Marin & SF,2 Bon Air,Larkspur,CA,94939,San Francisco-Oak-San Jose,37.943291,-122.539077,ROOFTOP,no
MED-100127,Cardiovascular Associates of Marin & SF,165 Rowland Way,Novato,CA,94949,San Francisco-Oak-San Jose,38.098446,-122.560558,ROOFTOP,no
MED-100048,Thoracic & Vascular Associates,267 Rte 108,Somersworth,NH,03878,Boston (Manchester),43.2540175,-70.8984146,RANGE_INTERPOLATED,no
MED-100861,Dr. Robert Lebow,38 Oakes Ave,Southbridge,MA,01550,Boston (Manchester),42.0780395,-72.0409482,RANGE_INTERPOLATED,no
MED-100547,Cornerstone Family Practice,641 Hospital Rd,Commerce,GA,30529,Atlanta,34.2168316,-83.4688992,RANGE_INTERPOLATED,no
MED-100313,Habersham Internal Medicine,870 Austin Ave,Demorest,GA,30535,Atlanta,34.5851681,-83.5377521,RANGE_INTERPOLATED,no
MED-100371,Habersham Family Medicine,865 Austin Dr,Demorest,GA,30535,Atlanta,34.585348,-83.537991,ROOFTOP,no
MED-100549,Tri-County Clinic,761 N Cherokee Rd,Social Circle,GA,30025,Atlanta,33.6672856,-83.7114643,RANGE_INTERPOLATED,no
MED-101169,Dr. Siruvella,705 Breedlove Dr,Monroe,GA,30655,Atlanta,33.7834108,-83.7212179,RANGE_INTERPOLATED,no
MED-101055,Alcovy Family Medicine,705 Breedlove Dr,Monroe,GA,30655,Atlanta,33.7834108,-83.7212179,RANGE_INTERPOLATED,no
MED-100273,Good News Clinics,810 Pine St,Gainesville,GA,30501,Atlanta,34.288922,-83.8262139,ROOFTOP,no
MED-101207,"Sy Medical, LLC",155 Lee Byrd Rd,Loganville,GA,30052,Atlanta,33.8336595,-83.8822738,RANGE_INTERPOLATED,no
MED-100320,Dr. Bruce Sabin,1790 Presidential Cir,Snellville,GA,30078,Atlanta,33.8770984,-84.0172917,ROOFTOP,no
MED-100016,"Gwinnett Consultants in Cardiology, PC",631 Professional Dr,Lawrenceville,GA,30045,Atlanta,33.9622626,-84.0178585,ROOFTOP,no
MED-100005,Gwinnett Consultants,1700 Tree Lane Rd,Snellville,GA,30078,Atlanta,33.87637,-84.023534,ROOFTOP,no
MED-100003,Atlanta Heart Associates,1502 W 3rd St,Jackson,GA,30233,Atlanta,33.2871712,-84.0263805,RANGE_INTERPOLATED,no
MED-100002,Atlanta Heart Associates,3758 Georgia 42,Locust Grove,GA,30248,Atlanta,33.350014,-84.111283,ROOFTOP,no
MED-100301,Family Practice and Weight Loss Center,1533 Pleasant Hill Rd,Duluth,GA,30096,Atlanta,33.9423606,-84.1235424,ROOFTOP,no
MED-100364,Firstmed of Forsyth,907 Buford Rd,Cumming,GA,30041,Atlanta,34.178829,-84.133079,ROOFTOP,no
MED-100651,Premier Medical Associates,407 E Maple St,Cumming,GA,30040,Atlanta,34.204932,-84.134127,ROOFTOP,no
MED-100655,Harper & Associates Family Medicine,5910 Hillandale Dr,Lithonia,GA,30058,Atlanta,33.7053132,-84.1483614,ROOFTOP,no
MED-101020,"Hillandale Medical Associates, PC",5910 Hillandale Dr ,Lithonia,GA,30058,Atlanta,33.7053132,-84.1483614,ROOFTOP,no
MED-100679,OBGYN of Atlanta,3890 Johns Creek Pkwy,Suwanee,GA,30024,Atlanta,34.067692,-84.162828,ROOFTOP,no
MED-100087,Internal Medicine Associates,3340 Paddocks Pkwy,Suwanee,GA,30024,Atlanta,34.081663,-84.1633562,RANGE_INTERPOLATED,no
MED-101136,Johns Creek Specialist Center,3350 Paddocks Pkwy,Suwanee,GA,30024,Atlanta,34.081663,-84.1633562,RANGE_INTERPOLATED,no
MED-100006,"Gwinnett Consultants in Cardiology, PC",3855 Pleasant Hill Rd,Duluth,GA,30096,Atlanta,33.999478,-84.164012,ROOFTOP,no
MED-100017,Georgia Clinic at Tucker,2362 Main St,Tucker,GA,30084,Atlanta,33.854123,-84.214942,ROOFTOP,no
MED-101134,Georgia Clinic ,11378 State Bridge Rd,Alpharetta,GA,30022,Atlanta,34.0575341,-84.2326611,RANGE_INTERPOLATED,no
MED-100429,South Forsyth Family Medicine,1845 Lockeway Dr,Alpharetta,GA,30004,Atlanta,34.1451546,-84.2477793,RANGE_INTERPOLATED,no
MED-100009,Georgia Clinic ,6330 Primrose Hill Ct,Norcross,GA,30092,Atlanta,33.9647088,-84.2538361,RANGE_INTERPOLATED,no
MED-100432,Dr. John Attokaren,11600 Atlantis Place,Alpharetta,GA,30022,Atlanta,34.0484858,-84.2752537,RANGE_INTERPOLATED,no
MED-100677,OBGYN of Atlanta,1100 Johnson Ferry Rd,Atlanta,GA,30342,Atlanta,33.9066265,-84.3494007,ROOFTOP,no
MED-100914,Georgia Women's Specialists,871 Forest Pkwy,Forest Park,GA,30297,Atlanta,33.6188098,-84.3614379,ROOFTOP,no
MED-100850,Dr. Hymavati Mikkinlineni,483 Upper Riverdale Rd,Riverdale,GA,30274,Atlanta,33.5723129,-84.4066467,RANGE_INTERPOLATED,no
MED-100001,Atlanta Heart Associates,483 Upper Riverdale Rd,Riverdale,GA,30276,Atlanta,33.5723129,-84.4066467,RANGE_INTERPOLATED,no
MED-100258,Southern Medical Clinic,1136 Cleveland Ave,East Point,GA,30344,Atlanta,33.6814382,-84.4260327,RANGE_INTERPOLATED,no
MED-100678,OBGYN of Atlanta,1519 Johnson Ferry Rd,Marietta,GA,30062,Atlanta,33.9868361,-84.4272549,ROOFTOP,no
MED-100101,Marietta Medical Clinic,2520 Windy Hill Rd,Marietta,GA,30067,Atlanta,33.9005777,-84.4799817,ROOFTOP,no
MED-101050,The Kaufmann Clinic,2001 Professional Way,Woodstock,GA,30188,Atlanta,34.0831,-84.521761,ROOFTOP,no
MED-100548,Life Boat Medical Associates,1201 Georgian Park,Peachtree City,GA,30269,Atlanta,33.4353626,-84.5898681,GEOMETRIC_CENTER,no
MED-100261,West Cobb Medical Associates,870 CrestMark Dr,Lithia Springs,GA,30122,Atlanta,33.780332,-84.610208,ROOFTOP,no
MED-100203,Community Health Center,6289 Veterans Memorial Hwy,Austell,GA,30168,Atlanta,33.804513,-84.640197,MANUAL,yes
MED-100270,Metropolitan Medical Consulting Services,4000 Mitchellville Rd,Bowie,MD,20716,"Washington, DC (Hagrstwn)",38.945675,-76.723108,ROOFTOP,no
MED-100276,Dr. Peter Swaby,4000 Mitchellville Rd,Bowie,MD,20716,"Washington, DC (Hagrstwn)",38.945675,-76.723108,ROOFTOP,no
MED-100215,"Dr. Singh Dpinder, MD",14300 Gallant Fox Ln,Bowie,MD,20715,"Washington, DC (Hagrstwn)",38.9729659,-76.7565998,ROOFTOP,no
MED-100295,Lakeside Medical Group,14300 Gallant Fox Ln,Bowie,MD,20715,"Washington, DC (Hagrstwn)",38.9729659,-76.7565998,ROOFTOP,no
MED-100275,Dr. Vanessa Allen,12200 Annapolis Rd,Glenn Dale,MD,20769,"Washington, DC (Hagrstwn)",38.9631703,-76.7948225,RANGE_INTERPOLATED,no
MED-100594,Dr. Kadie E. Leach,9500 Annapolis Rd,Lanham,MD,20706,"Washington, DC (Hagrstwn)",38.9650926,-76.8401072,ROOFTOP,no
MED-100464,Metropolitan Cardiovascular,10756 Rhode Island Ave,Beltsville,MD,20743,"Washington, DC (Hagrstwn)",39.0330854,-76.9137172,RANGE_INTERPOLATED,no
MED-100271,Dr. R. G. Bhojraj,5632 Annapolis Rd,Bladensburg,MD,20710,"Washington, DC (Hagrstwn)",38.939746,-76.920078,ROOFTOP,no
MED-100260,Dr. Bhalabhai V. Patel,5632 Annapolis Rd,Bladensburg,MD,20710,"Washington, DC (Hagrstwn)",38.939746,-76.920078,ROOFTOP,no
MED-100269,Associates in Family Practice,12520 Prosperity Dr,Silver Spring,MD,20904,"Washington, DC (Hagrstwn)",39.0617769,-76.9619071,ROOFTOP,no
MED-100197,Dr. Emmanuel Mbualungu,106 Irving St NW,Washington ,DC,20010,"Washington, DC (Hagrstwn)",38.928935,-77.013602,ROOFTOP,no
MED-100226,Accessible Medical Care,1010 Wayne Ave,Silver Spring,MD,20910,"Washington, DC (Hagrstwn)",38.993856,-77.027636,ROOFTOP,no
MED-100232,Dr. Vinu Ganti,10301 Georgia Ave,Silver Spring,MD,20902,"Washington, DC (Hagrstwn)",39.024182,-77.044004,ROOFTOP,no
MED-100401,Dr. Thomas Dooley,17904 Georgia Ave,Olney,MD,20830,"Washington, DC (Hagrstwn)",39.1500302,-77.0669612,ROOFTOP,no
MED-100033,Mount Vernon Cardiology,8101 Hinson Farm Rd,Alexandria,VA,22306,"Washington, DC (Hagrstwn)",38.7370202,-77.0777043,ROOFTOP,no
MED-100448,"Dr. C.S Michael, LLC",6355 Walker Ln,Alexandria,VA,22310,"Washington, DC (Hagrstwn)",38.7674278,-77.1607319,ROOFTOP,no
MED-100031,Mount Vernon Cardiology,6355 Walker Ln,Alexandria,VA,22310,"Washington, DC (Hagrstwn)",38.7674278,-77.1607319,ROOFTOP,no
MED-100249,Dr. Rita Ghosh,14812 Physicians Ln,Rockville,MD,20850,"Washington, DC (Hagrstwn)",39.0991098,-77.2111858,RANGE_INTERPOLATED,no
MED-100032,Mount Vernon Cardiology,8988 Lorton Blvd,Lorton,VA,22079,"Washington, DC (Hagrstwn)",38.7146533,-77.2125852,ROOFTOP,no
MED-100635,"Dr. Raman Tuli, MD,P.C",10810 Darnestown Rd,Gaithersburg,MD,20878,"Washington, DC (Hagrstwn)",39.1027175,-77.2212301,RANGE_INTERPOLATED,no
MED-100219,Horizon Health Group,20500 Seneca Meadows Pkwy,Germantown,MD,20876,"Washington, DC (Hagrstwn)",39.1976388,-77.2580719,ROOFTOP,no
MED-100218,Dr. Plyush K. Patel ,19745 Executive Park Circle,Germantown,MD,20874,"Washington, DC (Hagrstwn)",39.1808261,-77.2734281,RANGE_INTERPOLATED,no
MED-100671,Kidney and Hypertension Specialists,9378 Forestwood Ln,Manassas,VA,20110,"Washington, DC (Hagrstwn)",38.76443,-77.4796999,ROOFTOP,no
MED-100201,Allergy and Asthma Center of Fredericksburg,1300 Thornton St,Fredericksburg,VA,22401,"Washington, DC (Hagrstwn)",38.3036979,-77.4800977,RANGE_INTERPOLATED,no
MED-100235,Dr. N. Andrawis,9001 Digges Rd,Manassas,VA,20110,"Washington, DC (Hagrstwn)",38.765124,-77.487193,ROOFTOP,no
MED-100066,Prince William Cardiology Associates,7130 Heritage Village Plaza,Gainesville,VA,20155,"Washington, DC (Hagrstwn)",38.80355,-77.603238,ROOFTOP,no
MED-100327,Dr. Amer Zaheer,1200 Binz St,Houston,TX,77004,Houston,29.724443,-95.387565,ROOFTOP,no
MED-101091,"Dr. George G. Burnazian, MD",1200 Binz St,Houston,TX,77004,Houston,29.724443,-95.387565,ROOFTOP,no
MED-100328,"North Loops Medical, LLC",1919 N Loop W,Houston,TX,77008,Houston,29.8112032,-95.4340105,ROOFTOP,no
MED-100604,Dr. Leroy L. Sterling,4126 Southwest Frwy,Houston,TX,77027,Houston,29.7297578,-95.4449639,ROOFTOP,no
MED-100725,Medex Healthcare,8200 Wednesbury Ln,Houston,TX,77074,Houston,29.689227,-95.526795,ROOFTOP,no
MED-100543,Dr. Rema Yerramsetti,902 Frostwood Dr,Houston,TX,77024,Houston,29.779981,-95.546747,ROOFTOP,no
MED-101115,"Pietro Cavataio, MD",3350 Gratiot Blvd,Marysville,MI,48040,Detroit,42.910869,-82.498572,ROOFTOP,no
MED-100828,Samaritan Urgent Care,5575 Conner St,Detroit,MI,48213,Detroit,42.3926738,-82.9827006,RANGE_INTERPOLATED,no
MED-101027,Elmwood Park Medical Clinic,2950 E Jefferson Ave,Detroit,MI,48207,Detroit,42.3398563,-83.0183785,ROOFTOP,no
MED-100161,Jefferson Medical Clinic,2141 E Jefferson Ave,Detroit,MI,48207,Detroit,42.3371013,-83.0252802,ROOFTOP,no
MED-100980,Dr. Faud Katbi,10005 Joseph Campau St,Hamtramack,MI,48212,Detroit,42.3978868,-83.0586675,ROOFTOP,no
MED-100199,Rochester Medicial Group,3950 S Rochester Rd,Rochester Hills,MI,48307,Detroit,42.624206,-83.131997,ROOFTOP,no
MED-100613,Rochester Medical Group,3950 S Rochester Rd,Rochester Hills,MI,48307,Detroit,42.624206,-83.131997,ROOFTOP,no
MED-100254,Dumitru Medical Center,5237 Oakman Rd,Dearborn,MI,48126,Detroit,42.3263215,-83.1691143,ROOFTOP,no
MED-100461,Schaefer Medical Center,13530 Michigan Ave,Dearborn,MI,48126,Detroit,42.32238,-83.175682,ROOFTOP,no
MED-100456,Dearborn Family Medicine Center,5728 Schafer Rd,Dearborn,MI,48126,Detroit,42.3308716,-83.1758913,ROOFTOP,no
MED-100083,Madison Medical Oak Park,24661 Coolidge ,Oak Park,MI,48237,Detroit,42.4728382,-83.1827343,ROOFTOP,no
MED-100253,Dr. Ziad Berri,14515 Ford Rd,Dearborn,MI,48126,Detroit,42.3292324,-83.1851831,ROOFTOP,no
MED-100063,"Kyle Medical, PC",15101 W McNichols Rd,Detroit,MI,48235,Detroit,42.415935,-83.194584,ROOFTOP,no
MED-100560,"Home Clinic, PC",6050 Greenfield Rd,Dearborn,MI,48216,Detroit,42.3332683,-83.19566,ROOFTOP,no
MED-100159,Pavilion Family Practice,23077 Greenfield Rd,Southifeld,MI,48075,Detroit,42.46017,-83.2017581,ROOFTOP,no
MED-101081,Summit Women's Center,15801 W McNichols Rd,Detroit,MI,48235,Detroit,42.415628,-83.202194,ROOFTOP,no
MED-100777,Beaumont Family Medicine,26015 Greenfield Rd,Southfield,MI,48076,Detroit,42.4812972,-83.2022494,RANGE_INTERPOLATED,no
MED-101130,Meadowbrook Urgent Care,33722 Woodward,Birmingham,MI,48009,Detroit,42.537082,-83.204484,ROOFTOP,no
MED-100136,Dix-Eureka Medical Center,14797 Dix-Toledo,Southgate,MI,48195,Detroit,42.201939,-83.207184,ROOFTOP,no
MED-100108,The River Urgent Care & Medical Clinic,3645 West Rd,Trenton,MI,48183,Detroit,42.140151,-83.212476,ROOFTOP,no
MED-100942,Ariaziz Corp,22972 Lasher Rd,Southfield,MI,48033,Detroit,42.4572579,-83.2600295,RANGE_INTERPOLATED,no
MED-100132,Dr. Satinder Aggarwal,10501 Telegraph Rd,Taylor ,MI,48180,Detroit,42.229895,-83.268329,ROOFTOP,no
MED-100512,Urgent Care,9870 Telegraph Rd,Taylor,MI,48180,Detroit,42.2334172,-83.2696861,RANGE_INTERPOLATED,no
MED-100111,Millennium Medical Group South,530 N Telegraph Rd,Dearborn,MI,48128,Detroit,42.3152459,-83.2717521,ROOFTOP,no
MED-100667,Advanced Obstetrics & Gynecology,24346 W Warren St,Dearborn Heights,MI,48127,Detroit,42.3413542,-83.2764216,ROOFTOP,no
MED-100206,Arbor Lane Family Physicians,8555 Silvery Ln,Dearborn Heights,MI,48127,Detroit,42.3555243,-83.2842614,RANGE_INTERPOLATED,no
MED-101148,Family Medicine Center,461 W Huron St,Pontiac,MI,48341,Detroit,42.6356276,-83.3099197,ROOFTOP,no
MED-100878,Laz Medical Group,29425 Northwestern Hwy,Southfield,MI,48034,Detroit,42.5040104,-83.3145777,RANGE_INTERPOLATED,no
MED-100109,River Urgent Care,6200 Middlebelt ,Garden City,MI,48135,Detroit,42.330895,-83.330447,ROOFTOP,no
MED-100058,Clark Center for Comprehensive Medicine,2011 Middlebelt Rd,Garden City,MI,48135,Detroit,42.324305,-83.331466,ROOFTOP,no
MED-100936,Primary Care Internal Medicine,20276 Middlebelt Rd,Livonia,MI,48152,Detroit,42.4373147,-83.3364022,RANGE_INTERPOLATED,no
MED-100057,Midwest Cardiology Associates,30626 Ford Rd,Garden City,MI,48135,Detroit,42.325586,-83.343169,ROOFTOP,no
MED-100055,Garden City Family Physicians ,30900 Ford Rd,Garden City,MI,48135,Detroit,42.3252944,-83.3441152,RANGE_INTERPOLATED,no
MED-100242,Cedar Medical Associates,8240 N Merriman Rd,Westland,MI,48185,Detroit,42.3484248,-83.3513262,RANGE_INTERPOLATED,no
MED-100162,Farmington Family Physicians,23800 Orchard Lake Rd,Farmington Hills,MI,48336,Detroit,42.467477,-83.35606,ROOFTOP,no
MED-100061,Dr. Jairaj Mulchandani,32320 Michigan Ave,Wayne,MI,48184,Detroit,42.284519,-83.35772,ROOFTOP,no
MED-100117,Farmington Hills Medical Group,27970 Orchard Lake Rd,Farmington Hills,MI,48334,Detroit,42.501541,-83.357883,ROOFTOP,no
MED-100069,"Dr. Neil Jahan, MD",1651 S Venoy Rd,Westland,MI,48186,Detroit,42.296558,-83.363113,ROOFTOP,no
MED-100792,Venoy Medical Center,4020 Venoy Rd,Wayne,MI,48184,Detroit,42.279151,-83.36403,ROOFTOP,no
MED-100891,Dr. Samina Ansaw Ghazi,33110 W 12 Mile Rd,Farmington Hills,MI,48334,Detroit,42.4987824,-83.3752749,RANGE_INTERPOLATED,no
MED-100133,Freedom Medical Clinic,20206 Farmington Rd,Livonia,MI,48152,Detroit,42.4359909,-83.3752997,RANGE_INTERPOLATED,no
MED-100733,Synergy Health PC,33200 W 14 Mile Rd,West Bloomfield,MI,48322,Detroit,42.528692,-83.3771299,ROOFTOP,no
MED-100067,Wayne Medical Center,1203 S Wayne Rd,Westland,MI,48186,Detroit,42.300263,-83.387913,ROOFTOP,no
MED-100831,Livonia Urgent Care,37595 Seven Mile Rd,Livonia,MI,48152,Detroit,42.4252177,-83.4169942,RANGE_INTERPOLATED,no
MED-100131,"Novi Internal Medicine and Pediatrics, PLLC",39475 Lewis Dr,Novi,MI,48377,Detroit,42.507643,-83.43756,ROOFTOP,no
MED-100832,Western Wayne Urgent Care,2050 Haggerty Rd,Canton,MI,48187,Detroit,42.3215764,-83.4488779,RANGE_INTERPOLATED,no
MED-100118,"Randall A. Bickle, DO",42000 Six Mile Rd,Northville,MI,48167,Detroit,42.410974,-83.459272,ROOFTOP,no
MED-100932,Novi Urgent Care,43535 Grand River,Novi,MI,48375,Detroit,42.4810796,-83.4768528,RANGE_INTERPOLATED,no
MED-101332,"James D. Crowl, MD",46325 W 12 Mile Rd,Novi,MI,48377,Detroit,42.493615,-83.504288,ROOFTOP,no
MED-100929,Providence Medical Center-S Lyon,210 N Lafayette,South Lyon ,MI,48178,Detroit,42.461717,-83.651156,ROOFTOP,no
MED-100871,Dundee Urgent Care,100 Powell Dr,Dundee,MI,48131,Detroit,41.9574625,-83.6773896,GEOMETRIC_CENTER,no
MED-100420,Brighton Family Care,2305 Genoa Business Park Dr,Brighton,MI,48114,Detroit,42.5682624,-83.8057989,MANUAL,yes
MED-100743,Brighton Family Care,2305 Genoa Business Park Dr,Brighton,MI,48114,Detroit,42.5682624,-83.8057989,MANUAL,yes
MED-101337,Brighton Urgent Care,2300 Genoa Business Park Dr,Brighton,MI,48114,Detroit,42.5682624,-83.8057989,MANUAL,yes
MED-100207,Chelsea Internal Medicine,128 Van Buren St,Chelsea,MI,48118,Detroit,42.313887,-84.019054,ROOFTOP,no
MED-100051,DayOne Health Care ,363 Fremont St,Battle Creek,MI,49017,Detroit,42.3333363,-85.1775647,RANGE_INTERPOLATED,no
MED-100418,"Tri-City Express Care, LLC",415 N Valvista Dr,Mesa,AZ,85213,Phoenix (Prescott),33.4233483,-111.7536109,RANGE_INTERPOLATED,no
MED-101210,First Care Medical ,637 E Main St,Mesa,AZ,85203,Phoenix (Prescott),33.4149356,-111.8172795,ROOFTOP,no
MED-100298,Southwest Urgent Care,535 E McKellips,Mesa,AZ,85203,Phoenix (Prescott),33.451149,-111.820107,ROOFTOP,no
MED-101153,Tri-City Express Care,2875 W Ray Rd,Chandler,AZ,85224,Phoenix (Prescott),33.3203031,-111.8905784,RANGE_INTERPOLATED,no
MED-101156,Tri-City Express Care,7730 E McDowell Rd,Scotsdale,AZ,85257,Phoenix (Prescott),33.46682,-111.913107,ROOFTOP,no
MED-100552,Verde Valley Urgent Care,450 S Willard Rd,Cottonwood,AZ,86326,Phoenix (Prescott),34.732187,-112.028039,ROOFTOP,no
MED-100369,Central Phoenix Medical Clinic,7600 N 15th St,Phoenix,AZ,85020,Phoenix (Prescott),33.547958,-112.051443,ROOFTOP,no
MED-100138,Banner Good Samaritan Out Patient Clinic,925 E McDowell Rd,Phoenix,AZ,85006,Phoenix (Prescott),33.4656267,-112.0610452,ROOFTOP,no
MED-100493,Dr. Luis Lopez,3330 N 2nd St,Phoenix,AZ,85012,Phoenix (Prescott),33.4871263,-112.0712555,ROOFTOP,no
MED-100676,Phoenix Gynecology Consultants,3410 N 4th Ave,Phoenix,AZ,85013,Phoenix (Prescott),33.488048,-112.079364,ROOFTOP,no
MED-100860,Desert Pain and Rehab,11047 N 19th Ave,Phoenix,AZ,85029,Phoenix (Prescott),33.5870669,-112.0996448,RANGE_INTERPOLATED,no
MED-100858,Northwest Medical Center,11045 N 19th Ave,Phoenix,AZ,85029,Phoenix (Prescott),33.5870611,-112.0996449,RANGE_INTERPOLATED,no
MED-100911,Arrowhead Medical & Aesthetics Center,20325 N 51st Ave,Glendale,AZ,85308,Phoenix (Prescott),33.670568,-112.1691538,ROOFTOP,no
MED-101281,Lenzmeier Family Practice,20100 N 51st Ave,Glendale,AZ,85308,Phoenix (Prescott),33.6657378,-112.1697557,ROOFTOP,no
MED-100515,Northwest Family Clinic,17100 N 67th Ave,Glendale,AZ,85308,Phoenix (Prescott),33.6398518,-112.2043374,ROOFTOP,no
MED-100073,Watson Clinic,2250 Osprey Blvd,Bartow,FL,33830,Tampa-St. Pete (Sarasota),27.9176469,-81.8435965,RANGE_INTERPOLATED,no
MED-100974,Watson Clinic,2250 Osprey Blvd,Bartow,FL,33830,Tampa-St. Pete (Sarasota),27.9176469,-81.8435965,RANGE_INTERPOLATED,no
MED-100074,Watson Clinic,2140 E Co Rd,Lakeland,FL,33813,Tampa-St. Pete (Sarasota),28.0727605,-81.9533068,RANGE_INTERPOLATED,no
MED-100072,Watson Clinic Main 4W,1600 Lakeland Hills Blvd,Lakeland,FL,33805,Tampa-St. Pete (Sarasota),28.067355,-81.954305,ROOFTOP,no
MED-100088,Watson Clinic Main 4E,1600 Lakeland Hills Blvd,Lakeland,FL,33805,Tampa-St. Pete (Sarasota),28.067355,-81.954305,ROOFTOP,no
MED-100089,Watson Clinic Main 3E,1600 Lakeland Hills Blvd,Lakeland,FL,33805,Tampa-St. Pete (Sarasota),28.067355,-81.954305,ROOFTOP,no
MED-100090,Watson Clinic Main 3W,1600 Lakeland Hills Blvd,Lakeland,FL,33805,Tampa-St. Pete (Sarasota),28.067355,-81.954305,ROOFTOP,no
MED-100091,Watson Clinic Main 2E,1600 Lakeland Hills Blvd ,Lakeland,FL,33805,Tampa-St. Pete (Sarasota),28.067355,-81.954305,ROOFTOP,no
MED-100092,Watson Clinic Main 2W,1600 Lakeland Hills Blvd ,Lakeland,FL,33805,Tampa-St. Pete (Sarasota),28.067355,-81.954305,ROOFTOP,no
MED-100093,Watson Clinic Main Urgent Care 1E,1600 Lakeland Hills Blvd ,Lakeland,FL,33805,Tampa-St. Pete (Sarasota),28.067355,-81.954305,ROOFTOP,no
MED-100975,Watson Clinic,1600 Lakeland Hills Blvd,Lakeland,FL,33805,Tampa-St. Pete (Sarasota),28.067355,-81.954305,ROOFTOP,no
MED-100976,Watson Clinic,1600 Lakeland Hills Blvd,Lakeland,FL,33805,Tampa-St. Pete (Sarasota),28.067355,-81.954305,ROOFTOP,no
MED-100977,Watson Clinic,1600 Lakeland Hills Blvd,Lakeland,FL,33805,Tampa-St. Pete (Sarasota),28.067355,-81.954305,ROOFTOP,no
MED-100076,Watson Clinic,615 E Alexander St,Plant City,FL,33563,Tampa-St. Pete (Sarasota),28.0089718,-82.1378889,RANGE_INTERPOLATED,no
MED-100239,The Cardiology Center of Englewood,601 Medical Dr,Englewood,FL,34223,Tampa-St. Pete (Sarasota),26.949439,-82.3284539,ROOFTOP,no
MED-101048,"Peter A. Jacobson, MD",1649 Sun City Center Plaza,Sun City Center,FL,33573,Tampa-St. Pete (Sarasota),27.713483,-82.356171,ROOFTOP,no
MED-100590,Dr. Stephanie Talton Williamson,2352 Creel Ln,Wesley Chapel,FL,33544,Tampa-St. Pete (Sarasota),28.191295,-82.372521,ROOFTOP,no
MED-100352,University Family Health Care,2415 University Pkwy,Sarasota,FL,34243,Tampa-St. Pete (Sarasota),27.390453,-82.520897,ROOFTOP,no
MED-100309,Heart Associates,5606 W Norvell Bryant Hwy,Crystal River,FL,34429,Tampa-St. Pete (Sarasota),28.890194,-82.527451,ROOFTOP,no
MED-100274,Bayshore Physicians,8813 River Crossing Blvd,New Port Richey,FL,34655,Tampa-St. Pete (Sarasota),28.2374432,-82.6702804,RANGE_INTERPOLATED,no
MED-100237,"Doctors Inn Two, Inc.",13495 Gulf Blvd,Madeira Beach,FL,33708,Tampa-St. Pete (Sarasota),27.7911731,-82.7884257,ROOFTOP,no
MED-101273,Snohomish Family Medical Center,629 Ave D,Snohomish,WA,98290,Seattle-Tacoma,47.9200425,-122.0979254,ROOFTOP,no
MED-101268,Snohomish Family Medical Center,629 Ave D,Snohomish,WA,98290,Seattle-Tacoma,47.9200425,-122.0979254,ROOFTOP,no
MED-100591,US Health Works,3850 S Meridian,Puyallup,WA,98373,Seattle-Tacoma,47.1555515,-122.2937615,ROOFTOP,no
MED-100156,Spanaway Family Medicine Center,144 169th St S ,Spanaway,WA,98387,Seattle-Tacoma,47.10336,-122.434216,ROOFTOP,no
MED-100403,Christian Family Care,8725 S Tacoma Way,Lakewood,WA,98499,Seattle-Tacoma,47.1781706,-122.4837881,RANGE_INTERPOLATED,no
MED-100356,Olympic Family Practice,2601 Cherry Ave,Bremerton,WA,98310,Seattle-Tacoma,47.584197,-122.626344,ROOFTOP,no
MED-100637,Big Rock Health Center,130 Marvin Rd SE,Lacey,WA,98503,Seattle-Tacoma,47.055731,-122.763909,ROOFTOP,no
MED-101051,St. Martin's Student Health Center,5300 Pacific Ave SE,Lacey,WA,98503,Seattle-Tacoma,47.040957,-122.821556,ROOFTOP,no
MED-100640,Napavine Medical Clinic,305 2nd Ave NE,Napavine,WA,98565,Seattle-Tacoma,46.5763177,-122.9070284,RANGE_INTERPOLATED,no
MED-100719,Steck Medical Center,1299 Bishop Rd,Chehalis,WA,98532,Seattle-Tacoma,46.639515,-122.940434,ROOFTOP,no
MED-100638,Steck Medical Center,1299 Bishop Rd,Chehalis,WA,98532,Seattle-Tacoma,46.639515,-122.940434,ROOFTOP,no
MED-100639,Centralia Specialty Center,1707 Cooks Hill Rd,Centralia,WA,98531,Seattle-Tacoma,46.714059,-122.982002,ROOFTOP,no
MED-100820,Riverview Health Center,300 Ocean Ave,Raymond,WA,98577,Seattle-Tacoma,46.6805575,-123.7366741,RANGE_INTERPOLATED,no
MED-100817,Willapa Family Medicine,810 Alder St,South Bend,WA,98586,Seattle-Tacoma,46.6651128,-123.8107258,GEOMETRIC_CENTER,no
MED-100818,Pacific Family Health Center,826 Alder St,South Bend,WA,98586,Seattle-Tacoma,46.6651128,-123.8107258,GEOMETRIC_CENTER,no
MED-100528,Family Practice Center of Grays Harbor,815 K St,Hoquiam,WA,98550,Seattle-Tacoma,46.975568,-123.884218,ROOFTOP,no
MED-100449,Express Health Care,10190 Baltimore St NE,Blaine,MN,55449,Minneapolis-St. Paul,45.155487,-93.233564,ROOFTOP,no
MED-100350,Dr. Christopher Pham,2040 NE 49th St,Ft. Lauderdale,FL,33308,Miami-Ft. Lauderdale,26.188278,-80.117106,ROOFTOP,no
MED-101206,Dr. Misha Denham,4302 Alton Rd,Miami Beach,FL,33140,Miami-Ft. Lauderdale,25.8155555,-80.1378285,ROOFTOP,no
MED-100349,Pines Total Health Care,233 N University Dr,Pembroke Pines,FL,33024,Miami-Ft. Lauderdale,26.0106846,-80.248252,RANGE_INTERPOLATED,no
MED-101042,Dr. Medhat Awad,8395 W Oakland Park Blvd,Sunrise,FL,33351,Miami-Ft. Lauderdale,26.1676121,-80.2618323,RANGE_INTERPOLATED,no
MED-100343,Sunset Cardiology,9193 Sunset Dr,Miami,FL,33173,Miami-Ft. Lauderdale,25.7020708,-80.3420163,RANGE_INTERPOLATED,no
MED-100347,Dr. Julius A. Gasso,9200 Sunset Dr,Miami,FL,33173,Miami-Ft. Lauderdale,25.701396,-80.342674,ROOFTOP,no
MED-101149,Middlefield Clinic,15561 W High St,Middlefield,OH,44062,Cleveland-Akron (Canton),41.461543,-81.087599,ROOFTOP,no
MED-100890,"Bachtel & Associates, INC",182 East Ave,Tallamadge,OH,44278,Cleveland-Akron (Canton),41.10086,-81.433691,ROOFTOP,no
MED-100763,Pax Medical Center,1655 W Market St,Akron,OH,44304,Cleveland-Akron (Canton),41.109569,-81.5681929,ROOFTOP,no
MED-101351,Noms Family Practice Huron,808 S Main St,Huron,OH,44839,Cleveland-Akron (Canton),41.389246,-82.5602078,RANGE_INTERPOLATED,no
MED-101071,Dr. Brian Baxter Family Practice,1326 E Perkins Ave,Sandusky,OH,44870,Cleveland-Akron (Canton),41.432066,-82.679411,ROOFTOP,no
MED-100941,Noms HealthCare,2500 W Strub Rd,Sandusky,OH,44870,Cleveland-Akron (Canton),41.4096015,-82.7343064,RANGE_INTERPOLATED,no
MED-101060,Plum Creek Medical,410 S Wilcox St,Castle Rock,CO,80104,Denver,39.3639889,-104.863471,ROOFTOP,no
MED-100468,Thornton Medical Center,3814 E 120th Ave,Thornton,CO,80233,Denver,39.9139438,-104.9431716,RANGE_INTERPOLATED,no
MED-100469,Thornton Medical Center,3814 E 120th Ave,Thornton,CO,80233,Denver,39.9139438,-104.9431716,RANGE_INTERPOLATED,no
MED-101131,MIMA ,1220 Ste Rd A1A,Indialantic,FL,32903,Orlando-Daytona Bch-Melbrn,28.1030097,-80.5705306,RANGE_INTERPOLATED,no
MED-100229,"Quality Medical Care, PA",2254 Florida A1A,Indian Hrbr Bch,FL,32937,Orlando-Daytona Bch-Melbrn,28.1406027,-80.5815555,RANGE_INTERPOLATED,no
MED-100998,MIMA,2040 Florida A1A,Indian Hrbr Bch,FL,32937,Orlando-Daytona Bch-Melbrn,28.1465488,-80.583057,RANGE_INTERPOLATED,no
MED-100999,MIMA,2040 Florida A1A,Indian Hrbr Bch,FL,32937,Orlando-Daytona Bch-Melbrn,28.1465488,-80.583057,RANGE_INTERPOLATED,no
MED-100642,Osler Medical,2222 S Harbor City Blvd,Melbourne,FL,32901,Orlando-Daytona Bch-Melbrn,28.076069,-80.60239,ROOFTOP,no
MED-100643,Osler Medical,2222 S Harbor City Blvd,Melbourne,FL,32901,Orlando-Daytona Bch-Melbrn,28.076069,-80.60239,ROOFTOP,no
MED-100644,Osler Medical,2222 S Harbor City Blvd,Melbourne,FL,32901,Orlando-Daytona Bch-Melbrn,28.076069,-80.60239,ROOFTOP,no
MED-100772,Osler Medical,2222 S Harbor City Blvd,Melbourne,FL,32901,Orlando-Daytona Bch-Melbrn,28.076069,-80.60239,ROOFTOP,no
MED-100641,Osler Medical,2222 S Harbor City Blvd,Melbourne,FL,32901,Orlando-Daytona Bch-Melbrn,28.076069,-80.60239,ROOFTOP,no
MED-100020,Osler Medical ,930 S Harbor City Blvd,Melbourne,FL,32901,Orlando-Daytona Bch-Melbrn,28.0949759,-80.6108851,ROOFTOP,no
MED-101267,Sunshine HealthCare,455 Minutemen Cswy,Cocoa Beach,FL,32931,Orlando-Daytona Bch-Melbrn,28.3184215,-80.6126066,RANGE_INTERPOLATED,no
MED-100224,"Quality Medical Care, PA",675 S Babcock St,Melbourne,FL,32901,Orlando-Daytona Bch-Melbrn,28.0973595,-80.6216751,ROOFTOP,no
MED-100225,"Quality Medical Care, PA",675 S Babcock St,Melbourne,FL,32901,Orlando-Daytona Bch-Melbrn,28.0973595,-80.6216751,ROOFTOP,no
MED-100779,MIMA,1223 Gateway Dr,Melbourne,FL,32901,Orlando-Daytona Bch-Melbrn,28.0895774,-80.6502056,ROOFTOP,no
MED-100015,MIMA,1223 Gateway Dr,Melbourne,FL,32901,Orlando-Daytona Bch-Melbrn,28.0895774,-80.6502056,ROOFTOP,no
MED-101199,MIMA,1223 Gateway Dr,Melbourne,FL,32901,Orlando-Daytona Bch-Melbrn,28.0895774,-80.6502056,ROOFTOP,no
MED-101200,MIMA,1223 Gateway Dr,Melbourne,FL,32901,Orlando-Daytona Bch-Melbrn,28.0895774,-80.6502056,ROOFTOP,no
MED-100983,MIMA,1223 Gateway Dr,Melbourne,FL,32901,Orlando-Daytona Bch-Melbrn,28.0895774,-80.6502056,ROOFTOP,no
MED-101009,MIMA,1223 Gateway Dr,Melbourne,FL,32901,Orlando-Daytona Bch-Melbrn,28.0895774,-80.6502056,ROOFTOP,no
MED-101057,MIMA,1223 Gateway Dr,Melbourne,FL,32901,Orlando-Daytona Bch-Melbrn,28.0895774,-80.6502056,ROOFTOP,no
MED-101058,MIMA,1223 Gateway Dr,Melbourne,FL,32901,Orlando-Daytona Bch-Melbrn,28.0895774,-80.6502056,ROOFTOP,no
MED-100030,Osler Medical ,240 N Wickham Rd,Melbourne,FL,32935,Orlando-Daytona Bch-Melbrn,28.108241,-80.672865,ROOFTOP,no
MED-100698,Osler Medical,240 N Wickham Rd,Melbourne,FL,32935,Orlando-Daytona Bch-Melbrn,28.108241,-80.672865,ROOFTOP,no
MED-100699,Osler Medical,240 N Wickham Rd,Melbourne,FL,32935,Orlando-Daytona Bch-Melbrn,28.108241,-80.672865,ROOFTOP,no
MED-100013,"D. Badolato, PA",6300 Wickham Rd,Melbourne,FL,32940,Orlando-Daytona Bch-Melbrn,28.214582,-80.674028,ROOFTOP,no
MED-100014,"D. Badolato, PA",6300 Wickham Rd,Melbourne,FL,32940,Orlando-Daytona Bch-Melbrn,28.214582,-80.674028,ROOFTOP,no
MED-100221,"Quality Medical Care, PA",925 N Courtney Pkwy,Merritt Island,FL,32953,Orlando-Daytona Bch-Melbrn,28.3724725,-80.7004084,RANGE_INTERPOLATED,no
MED-100222,"Quality Medical Care, PA",1264 Malabar Rd,Palm Bay,FL,32907,Orlando-Daytona Bch-Melbrn,27.9989856,-80.7075205,RANGE_INTERPOLATED,no
MED-100167,Osler Medical ,8057 Spyglass Hill Rd,Melbourne,FL,32940,Orlando-Daytona Bch-Melbrn,28.2380533,-80.7082844,RANGE_INTERPOLATED,no
MED-100780,MIMA,7125 Murrell Rd,Viera,FL,32940,Orlando-Daytona Bch-Melbrn,28.2370545,-80.7129344,ROOFTOP,no
MED-100205,Family Health Center/Dr. Choi,245 N Cswy,New Smyrna Beach,FL,32169,Orlando-Daytona Bch-Melbrn,29.035197,-80.914083,ROOFTOP,no
MED-100627,"Family Care Physicians, LLP",401 Venture Dr,South Daytona,FL,32114,Orlando-Daytona Bch-Melbrn,29.153195,-80.993184,ROOFTOP,no
MED-100202,Port Orange Urgent Care,1690 Dunlawton Ave,Port Orange,FL,32127,Orlando-Daytona Bch-Melbrn,29.114485,-81.023956,ROOFTOP,no
MED-100243,Sandpiper Medical Associates,1400 Hand Ave,Ormond Beach,FL,32174,Orlando-Daytona Bch-Melbrn,29.261303,-81.084309,ROOFTOP,no
MED-100071,"The Mini ER of Waterford Lakes, LLC",12301 Lake Underhill Rd,Orlando,FL,32828,Orlando-Daytona Bch-Melbrn,28.5479426,-81.2029338,ROOFTOP,no
MED-100616,"Dr. Ernest Chung, MD & Associates",2920 17th St,Saint Cloud,FL,34769,Orlando-Daytona Bch-Melbrn,28.2424362,-81.3020449,RANGE_INTERPOLATED,no
MED-100200,Unlimited Medical Service of Florida,5580 E Grant St,Orlando,FL,32822,Orlando-Daytona Bch-Melbrn,28.516462,-81.312648,ROOFTOP,no
MED-101135,Dr. Mark Weigley,685 Palm Springs Dr,Altomonte Springs,FL,32701,Orlando-Daytona Bch-Melbrn,28.674973,-81.373468,ROOFTOP,no
MED-101271,Altamonte Medical Group,460 E Altamonte Dr,Altamonte Springs,FL,32701,Orlando-Daytona Bch-Melbrn,28.6635802,-81.3757736,ROOFTOP,no
MED-100758,Dr. Raul Tamayo Internal Medicine,280 Wekiva Springs Rd,Longwood,FL,32779,Orlando-Daytona Bch-Melbrn,28.690708,-81.407422,ROOFTOP,no
MED-100244,"Dr. Raul Tamayo, PL",280 Wekiva Springs Rd,Longwood,FL,32779,Orlando-Daytona Bch-Melbrn,28.690708,-81.407422,ROOFTOP,no
MED-100811,Dr. Carol Stewart,3927 Rosewood Way,Orlando,FL,32808,Orlando-Daytona Bch-Melbrn,28.6083922,-81.4280732,RANGE_INTERPOLATED,no
MED-101140,Alliance Medical Associates,10969 SE 175th Pl,Summerfield,FL,34491,Orlando-Daytona Bch-Melbrn,28.967273,-81.971484,ROOFTOP,no
MED-100682,Villages Endoscopy & Surgical  Center,10900 SE 174th Place Rd,Summerfield,FL,34491,Orlando-Daytona Bch-Melbrn,28.968335,-81.972566,ROOFTOP,no
MED-101008,"Donald Gutman, MD",1600 Creekside Dr,Folsom,CA,95630,Sacramnto-Stkton-Modesto,38.6699879,-121.14746,ROOFTOP,no
MED-100445,Dr. Ray Mikelionis,203 Grove St,Roseville,CA,95678,Sacramnto-Stkton-Modesto,38.7529085,-121.2870227,RANGE_INTERPOLATED,no
MED-100822,Care Medical Clinic Inc,6500 Coyle Ave,Carmichael,CA,95608,Sacramnto-Stkton-Modesto,38.667792,-121.31172,ROOFTOP,no
MED-100383,Midtown Primary Care Associates,5240 Elvas Ave,Sacramento,CA,95819,Sacramnto-Stkton-Modesto,38.5764755,-121.4352683,RANGE_INTERPOLATED,no
MED-100796,Gateway Healthcare,8601 W Main St,Belleville,IL,62223,St. Louis,38.570209,-90.052727,ROOFTOP,no
MED-101054,Health & Opportunity Center,1835 Kingshighway,Washington Park,IL,62204,St. Louis,38.6335989,-90.0931136,RANGE_INTERPOLATED,no
MED-101003,Southern Illinois Regional Wellness Center,100 N 8th Street,East St. Louis,IL,62201,St. Louis,38.6225293,-90.1572485,RANGE_INTERPOLATED,no
MED-101128,Southern Illinois Medical Specialists,100 N 8th Street,E St. Louis,MO,62201,St. Louis,38.6270664,-90.1930153,RANGE_INTERPOLATED,no
MED-100546,Saint Louis Connect Care,5535 Delmar Blvd,St. Louis,MO,63112,St. Louis,38.654178,-90.280339,ROOFTOP,no
MED-100344,National Medical Information Service,2331 Hampton Ave,St. Louis,MO,63139,St. Louis,38.6141934,-90.2879645,ROOFTOP,no
MED-101340,Hampton Medical Office,5213 Hampton Ave,St. Louis,MO,63109,St. Louis,38.583629,-90.293325,ROOFTOP,no
MED-101167,Dr. Jianmei Liu,6400 Clayton Rd,St. Louis,MO,63117,St. Louis,38.633293,-90.309455,ROOFTOP,no
MED-101168,Dr. P. Kulikowski,6400 Clayton Rd,St. Louis,MO,63117,St. Louis,38.633293,-90.309455,ROOFTOP,no
MED-100110,Lemay Internal Medicine,2900 Lemay Ferry Rd,St. Louis,MO,63125,St. Louis,38.5161674,-90.3110473,ROOFTOP,no
MED-100598,Clayton Medical Center/Dr. Kaiser,1035 Bellevue Ave,St. Louis,MO,63117,St. Louis,38.633065,-90.313229,ROOFTOP,no
MED-101212,Clayton Endocrinology,1423 S Big Bend Blvd,St. Louis,MO,63117,St. Louis,38.626725,-90.320563,ROOFTOP,no
MED-100715,Gateway Health Care,7491 Big Bend ,Webster Groves,MO,63119,St. Louis,38.600598,-90.32705,ROOFTOP,no
MED-100648,"LRVS Medical, LLC",1224 Graham Rd,Florissant,MO,63031,St. Louis,38.7772144,-90.3349335,RANGE_INTERPOLATED,no
MED-100583,Women's Health Partners,211 N Merimec Ave,St. Louis,MO,63105,St. Louis,38.654693,-90.339474,ROOFTOP,no
MED-100361,MED-EX Forest Park,1034 S Brentwood Blvd,St. Louis,MO,63117,St. Louis,38.6361493,-90.3454293,ROOFTOP,no
MED-100362,MED-EX Forest Park,1034 S Brentwood Blvd,St. Louis,MO,63117,St. Louis,38.6361493,-90.3454293,ROOFTOP,no
MED-100375,MED-EX Forest Park Medical Clinic,1034 S Brentwood Blvd,St. Louis,MO,63117,St. Louis,38.6361493,-90.3454293,ROOFTOP,no
MED-100360,Slu-Care UClub,1034 S Brentwood Blvd,St. Louis,MO,63117,St. Louis,38.6361493,-90.3454293,ROOFTOP,no
MED-100815,Dr. Prithui Singh,8112 Delmar Blvd,St. Louis,MO,63130,St. Louis,38.659992,-90.3475629,ROOFTOP,no
MED-100816,Dr. Prithui Singh,8112 Delmar Blvd,St. Louis,MO,63130,St. Louis,38.659992,-90.3475629,ROOFTOP,no
MED-101239,Overland Medical Group,8888 Ladue Rd,St. Louis,MO,63124,St. Louis,38.651324,-90.351573,ROOFTOP,no
MED-101076,Patterson Medical,2175 Charbonier Rd,Florissant,MO,63031,St. Louis,38.8093438,-90.3595227,RANGE_INTERPOLATED,no
MED-101125,Esse Health,2175 Charbonier Rd,Florissant,MO,63031,St. Louis,38.8093438,-90.3595227,RANGE_INTERPOLATED,no
MED-100611,St. Louis Medical Professional,8790 Watson Rd,St. Louis,MO,63119,St. Louis,38.5637539,-90.3644861,RANGE_INTERPOLATED,no
MED-100534,Dr. Lakshmi Dundoo,10004 Kennerly Rd,St. Louis,MO,63128,St. Louis,38.507793,-90.378853,ROOFTOP,no
MED-101218,Dr. Chadwick T. Caudill,10004 Kennerly Rd,St. Louis,MO,63128,St. Louis,38.507793,-90.378853,ROOFTOP,no
MED-100476,St. Louis County Nephrology,10004 Kennerly Rd,St. Louis,MO,63128,St. Louis,38.507793,-90.378853,ROOFTOP,no
MED-100518,County Cardiology Inc,10004 Kennerly Rd,St. Louis,MO,63128,St. Louis,38.507793,-90.378853,ROOFTOP,no
MED-100044,St. Anthony's Primary Consultants,12700 Southfork Rd,St. Louis,MO,63128,St. Louis,38.50242,-90.381404,ROOFTOP,no
MED-100050,South County Endocrinology Diabetes Center,12700 Southfork Rd,St. Louis,MO,63128,St. Louis,38.50242,-90.381404,ROOFTOP,no
MED-100054,St. Anthony's Family Medicine,12700 Southfork Rd,St. Louis,MO,63128,St. Louis,38.50242,-90.381404,ROOFTOP,no
MED-100524,General Surgery of St. Louis,12700 Southfork Rd,St. Louis,MO,63128,St. Louis,38.50242,-90.381404,ROOFTOP,no
MED-100043,St. Anthony's Internal Medicine,12700 Southfork Rd,St. Louis,MO,63128,St. Louis,38.50242,-90.381404,ROOFTOP,no
MED-101118,"Musaddegue Ahmad, MD PC",1390 U.S. 61,Festus,MO,63028,St. Louis,38.1965593,-90.3953492,RANGE_INTERPOLATED,no
MED-101197,Jefferson County Internal Medicine,1455 U.S. 61,Festus,MO,63028,St. Louis,38.1937413,-90.3956263,RANGE_INTERPOLATED,no
MED-100793,Draves Family Practice,1471 U.S. 61,Festus,MO,63028,St. Louis,38.1927839,-90.3957051,RANGE_INTERPOLATED,no
MED-100257,Kirkwood Family Medicine,10296 Big Bend Rd,St. Louis,MO,63122,St. Louis,38.567252,-90.397059,ROOFTOP,no
MED-100731,Sunset Hills Adult Medicine,3844 S Lindbergh Blvd,St. Louis,MO,63127,St. Louis,38.548702,-90.403372,ROOFTOP,no
MED-100701,"Rochelle G. Catus, Inc",12255 DePaul Dr,Bridgeton,MO,63044,St. Louis,38.750345,-90.432975,ROOFTOP,no
MED-100597,St. Louis Cardiology,12255 DePaul Dr,Bridgeton,MO,63044,St. Louis,38.750345,-90.432975,ROOFTOP,no
MED-100720,Premier Women's Health Care,714 Gravois Rd,Fenton,MO,63026,St. Louis,38.5116746,-90.4458735,ROOFTOP,no
MED-100049,St. Anthony's Fenton Family Medicine,714 Gravois Rd,Fenton,MO,63026,St. Louis,38.5116746,-90.4458735,ROOFTOP,no
MED-101290,Internal Medicine Specialists,3009 North Ballas Rd,St. Louis,MO,63131,St. Louis,38.6353757,-90.4485641,ROOFTOP,no
MED-101069,Long Term Consultants,3009 N Ballas Rd,St. Louis,MO,63131,St. Louis,38.6353757,-90.4485641,ROOFTOP,no
MED-101289,Associated Internists,3009 N Ballas Rd,St. Louis,MO,63131,St. Louis,38.6353757,-90.4485641,ROOFTOP,no
MED-100338,Bi State Cardiovascular,2355 Dougherty Ferry Rd,St. Louis,MO,63122,St. Louis,38.5809971,-90.4513552,RANGE_INTERPOLATED,no
MED-100333,Des Pres Family Medicine,2325 Dougherty Ferry,St. Louis,MO,63122,St. Louis,38.5785868,-90.4555069,RANGE_INTERPOLATED,no
MED-101343,Women's Care Specialist,226 S Woodsmill Rd,Chesterfield,MO,63017,St. Louis,38.6261146,-90.5158389,RANGE_INTERPOLATED,no
MED-100462,"Cardio-Pulmonary Care, LLC",222 S Woods Mill Rd,Chesterfield,MO,63017,St. Louis,38.6261072,-90.515841,RANGE_INTERPOLATED,no
MED-100463,"Cardio-Pulmonary Care, LLC",222 S Woods Mill Rd,Chesterfield,MO,63017,St. Louis,38.6261072,-90.515841,RANGE_INTERPOLATED,no
MED-100687,"Women's Care Specialist, LLC",209 1st Executive Ave,St. Peters,MO,63376,St. Louis,38.7933471,-90.5845605,RANGE_INTERPOLATED,no
MED-100472,Premier Medical,300 N 1st St,Pacific,MO,63069,St. Louis,38.484102,-90.7413954,RANGE_INTERPOLATED,no
MED-100708,Ria Medical,600 Medical Dr,Wentzville,MO,63385,St. Louis,38.8233931,-90.8822105,ROOFTOP,no
MED-100716,Dr. Navin Choudhary,118 S East St,Warrenton,MO,63383,St. Louis,38.8109436,-91.147548,RANGE_INTERPOLATED,no
MED-101165,Premier Health Center,102 Progress Dr,Sullivan,MO,63080,St. Louis,38.1988236,-91.1750718,MANUAL,yes
MED-100157,Oregon City Medical,728 Molalla Ave,Oregon City,OR,97045,"Portland, OR",45.345246,-122.596903,ROOFTOP,no
MED-100374,Fay West Family Practice,109 Crossroads Rd,Scottsdale,PA,15683,Pittsburgh,40.1246133,-79.5520593,RANGE_INTERPOLATED,no
MED-101240,Perro Medical Center,405 Liberty St,Perryoplois,PA,15473,Pittsburgh,40.084102,-79.7515839,ROOFTOP,no
MED-100812,Wedgewood Family Practice- Suncreast,1197 Van Voorhis Rd,Morgantown,WV,26505,Pittsburgh,39.659005,-79.963781,ROOFTOP,no
MED-100971,Wedgewood Family Practice,900 Fairmont Rd,Westover,WV,26501,Pittsburgh,39.630913,-79.983754,ROOFTOP,no
MED-100193,Premier Clinics of Rockhill,1609 Constitution Blvd,Rock Hill,SC,29732,Charlotte,34.952622,-81.049721,ROOFTOP,no
MED-100874,Rau Family Medicine,2326 18th St,Columbus,IN,47201,Indianapolis,39.2168497,-85.8983993,RANGE_INTERPOLATED,no
MED-100867,Community Internists,3505 S Reed Rd,Kokomo,IN,46902,Indianapolis,40.446922,-86.12165,RANGE_INTERPOLATED,no
MED-100526,North Bay Medical Associates,126 E High St,Elkton,MD,21921,Baltimore,39.6099028,-75.8286782,RANGE_INTERPOLATED,no
MED-100482,Dr. David Gar-el,304-306 North St,Elkton,MD,21921,Baltimore,39.610673,-75.830065,ROOFTOP,no
MED-101159,Union Primary Care,111 W High St,Elkton,MD,21921,Baltimore,39.609302,-75.83279,ROOFTOP,no
MED-100937,"Jamshid Mian, MD",4863 Pulaski Hwy,Perryville,MD,21903,Baltimore,39.578217,-76.048554,ROOFTOP,no
MED-100094,LifeBridge Health,5051 Greenspring Ave,Baltimore,MD,21209,Baltimore,39.3535883,-76.6593418,ROOFTOP,no
MED-100378,Sinai Hospital Hoffberger Bldg,2411 W Belvedere Ave,Baltimore,MD,21215,Baltimore,39.3540615,-76.6628445,ROOFTOP,no
MED-100377,Sinai Hospital Hoffberger Bldg,2401 W Belvedere Ave,Baltimore,MD,21215,Baltimore,39.3540481,-76.6628865,ROOFTOP,no
MED-100985,Sinai Community Care,5101 Lanier Ave,Baltimore,MD,21215,Baltimore,39.3522321,-76.6640413,RANGE_INTERPOLATED,no
MED-100986,Sinai Community Care,5101 Lanier Ave,Baltimore,MD,21215,Baltimore,39.3522321,-76.6640413,RANGE_INTERPOLATED,no
MED-100342,LifeBridge Health Center,12221-3 Tullamore Rd,Timonium,MD,21093,Baltimore,39.4587427,-76.664264,RANGE_INTERPOLATED,no
MED-100412,Clinical Associates at Quarry Lake,2700 Quarry Lake Dr,Baltimore,MD,21209,Baltimore,39.3843074,-76.6914988,ROOFTOP,no
MED-100935,"Robert M. Cooper, MD LLC",6503 Park Heights Ave,Baltimore,MD,21215,Baltimore,39.3613,-76.697539,ROOFTOP,no
MED-101248,"Merryman & Allen, LLC",516 N Rolling Rd,Catonsville,MD,21228,Baltimore,39.2799122,-76.7545949,RANGE_INTERPOLATED,no
MED-100341,LifeBridge Health Center,6190 Georgetown Blvd,Eldersburg,MD,21784,Baltimore,39.4026608,-76.9445374,RANGE_INTERPOLATED,no
MED-100834,Goldsboro Medical Center,2400 Wayne Memorial Dr,Goldsboro,NC,27534,Raleigh-Durham (Fayetvlle),35.3979914,-77.959874,ROOFTOP,no
MED-100794,Mt. Olive Family Medicine Center,201 N Breazeale Ave,Mt. Olive,NC,28365,Raleigh-Durham (Fayetvlle),35.1981213,-78.0687473,RANGE_INTERPOLATED,no
MED-100803,Mt. Olive Family Medicine Center,201 N Breazeale Ave,Mt. Olive,NC,28365,Raleigh-Durham (Fayetvlle),35.1981213,-78.0687473,RANGE_INTERPOLATED,no
MED-100804,Mt. Olive Family Medicine Center,201 N Breazeale Ave,Mt. Olive,NC,28365,Raleigh-Durham (Fayetvlle),35.1981213,-78.0687473,RANGE_INTERPOLATED,no
MED-100761,Capital Physicians Group,3126 Blue Ridge Rd,Raleigh,NC,27612,Raleigh-Durham (Fayetvlle),35.822067,-78.702636,RANGE_INTERPOLATED,no
MED-100800,"Piedmont Internal Medicine, Pulmonary, & Infectious Diseases",3214 Charles B. Root Wynd,Raleigh,NC,27612,Raleigh-Durham (Fayetvlle),35.826774,-78.70853,ROOFTOP,no
MED-100198,Valley Internal Medicine,2149 Valleygate Dr,Fayetteville,NC,28304,Raleigh-Durham (Fayetvlle),35.040404,-78.913359,ROOFTOP,no
MED-101111,"Karen L. Smith, MD PA",929 W Prospect Ave,Raeford,NC,28376,Raleigh-Durham (Fayetvlle),34.9845374,-79.2382558,RANGE_INTERPOLATED,no
MED-100391,Metro Comprehensive Medical Center,444 C St W,San Diego,CA,92123,San Diego,32.716969,-117.167104,ROOFTOP,no
MED-100424,West Wilson Walk-In Clinic,4024 N Mt Juliet Rd,Mount Juliet,TN,37122,Nashville,36.226496,-86.514823,ROOFTOP,no
MED-100423,West Wilson Family Practice,3500 N Mt Juliet Rd,Mount-Juliet,TN,37122,Nashville,36.218786,-86.515666,ROOFTOP,no
MED-101101,"Susan Wyatt, MD",353 New Shackle Island Rd,Hendersonville,TN,37075,Nashville,36.324746,-86.623072,ROOFTOP,no
MED-100833,Shoreline Internal Medicine & Digestive Medicine,929 Boston Post Rd,Old Saybrook,CT,06475,Hartford & New Haven,41.2894105,-72.3873582,RANGE_INTERPOLATED,no
MED-100884,Internal & Gastro Associates of Manchester,360 Tolland Turnpike,Manchester,CT,06040,Hartford & New Haven,41.809142,-72.521889,ROOFTOP,no
MED-100430,East Hartford Family Practice,110 Main St,East Hartford,CT,06118,Hartford & New Haven,41.7323452,-72.6241863,RANGE_INTERPOLATED,no
MED-100959,"Middlesex Orthopedic, Internal Medicine & Physical Therapy",410 Saybrook Rd,Middletown,CT,06457,Hartford & New Haven,41.542457,-72.626345,ROOFTOP,no
MED-101352,Hartford Hospital Women's Ambulatory,111 Park St,Hartford,CT,06106,Hartford & New Haven,41.7573616,-72.6779967,RANGE_INTERPOLATED,no
MED-101353,Hartford Hospital Women's Ambulatory ,111 Park St,Hartford,CT,06106,Hartford & New Haven,41.7573616,-72.6779967,RANGE_INTERPOLATED,no
MED-101017,Community Care Center,79 Retreat Ave,Hartford,CT,06112,Hartford & New Haven,41.7533062,-72.6789119,RANGE_INTERPOLATED,no
MED-100991,Brownstone Center/Dental Clinic,79 Retreat Ave,Hartford,CT,06102,Hartford & New Haven,41.7533062,-72.6789119,RANGE_INTERPOLATED,no
MED-100978,Hartford Hospital/Adult Primary Care,79 Retreat Blvd,Hartford,CT,06102,Hartford & New Haven,41.7533062,-72.6789119,RANGE_INTERPOLATED,no
MED-100988,OPD Surgical Speciality Clinic,79 Retreat Ave,Hartford,CT,06102,Hartford & New Haven,41.7533062,-72.6789119,RANGE_INTERPOLATED,no
MED-100989,OPD Surgical Speciality Clinic,79 Retreat Ave,Hartford,CT,06102,Hartford & New Haven,41.7533062,-72.6789119,RANGE_INTERPOLATED,no
MED-101016,Diabetes Lifecare,80 Seymour St,Hartford,CT,06102,Hartford & New Haven,41.7541241,-72.6792679,ROOFTOP,no
MED-100703,Hartford Hospital Div of OB/GYN,85 Seymour St,Hartford,CT,06102,Hartford & New Haven,41.7544101,-72.6812874,ROOFTOP,no
MED-100990,Orthopedic Outpatient Clinic,85 Seymour St,Hartford,CT,06102,Hartford & New Haven,41.7544101,-72.6812874,ROOFTOP,no
MED-100585,Internal Medicine & Allergy of Hartford,19 Woodland St,Hartford,CT,06105,Hartford & New Haven,41.768655,-72.702348,ROOFTOP,no
MED-100479,Dr. Alfredo L. Axtmayer,8 Research Pkwy,Wallingford,CT,06492,Hartford & New Haven,41.484931,-72.764961,ROOFTOP,no
MED-100181,Internal Medicine Associates,67 Masonic Ave,Wallingford,CT,06492,Hartford & New Haven,41.4654077,-72.8344259,RANGE_INTERPOLATED,no
MED-100171,Connecticut Heart Group,55 Meriden Ave,Southington,CT,06489,Hartford & New Haven,41.5956886,-72.8762245,RANGE_INTERPOLATED,no
MED-100281,Hospital of St Rapheal,1441 Chapel St,New Haven,CT,06511,Hartford & New Haven,41.3111284,-72.9434339,RANGE_INTERPOLATED,no
MED-101004,Obstetric & Gynecology Consultants,1000 SW Blue Pkwy,Lee's Summit,MO,64068,Kansas City,38.9095488,-94.390873,RANGE_INTERPOLATED,no
MED-100023,Kansas City Internal Medicine,506 NW Murray Road,Lees Summit,MO,64081,Kansas City,38.9231877,-94.4038417,RANGE_INTERPOLATED,no
MED-101144,Mission Family Health Care,6511 Johnson Dr,Mission,KS,66202,Kansas City,39.0221455,-94.6611489,RANGE_INTERPOLATED,no
MED-101087,Dr. Fred Potts,4906 Frederick Ave,Saint Joseph,MO,64506,Kansas City,39.7800117,-94.7791749,ROOFTOP,no
MED-100967,Paola Family Practice,705 Baptiste Dr,Paola,KS,66071,Kansas City,38.5766171,-94.8683936,RANGE_INTERPOLATED,no
MED-100633,Immediate Health Associates,1906 Tamarack Rd,Newark,OH,43055,"Columbus, OH",40.0390573,-82.4656351,RANGE_INTERPOLATED,no
MED-100608,Whetstone Medical Clinic,12135 Lancaster St,Millersport,OH,43046,"Columbus, OH",39.900545,-82.535089,ROOFTOP,no
MED-101022,Arbor View Family Medicine,2405 N Columbus St,Lancaster,OH,43130,"Columbus, OH",39.741106,-82.635118,ROOFTOP,no
MED-100634,Immediate Health Associates,101 W Cherry St,Sunbury,OH,43074,"Columbus, OH",40.244126,-82.863769,ROOFTOP,no
MED-100654,U.S. Health Works,4849 E Main St,Columbus,OH,43213,"Columbus, OH",39.9551945,-82.8678983,RANGE_INTERPOLATED,no
MED-100659,Buchanan Medical Arts,101 Commerce Park Dr,Westerville,OH,43082,"Columbus, OH",40.1396817,-82.926384,RANGE_INTERPOLATED,no
MED-100632,Immediate Health Associates,444 N Cleveland Ave,Westerville,OH,43082,"Columbus, OH",40.1376924,-82.9470497,ROOFTOP,no
MED-100783,Polaris Urgent Care,1120 Polaris Pkwy,Columbus,OH,43420,"Columbus, OH",40.144529,-82.989786,ROOFTOP,no
MED-100626,Beechwold Family Practice,4808 N High St,Columbus,OH,43214,"Columbus, OH",40.060531,-83.019174,ROOFTOP,no
MED-100866,"Michael J. Cooney, Mark D. Ricaurte and Associates, Inc",719 W Town St,Columbus,OH,43222,"Columbus, OH",39.9563994,-83.019198,RANGE_INTERPOLATED,no
MED-100673,Park Street Family Practice,3154 Park St,Grove City,OH,43123,"Columbus, OH",39.8801953,-83.0871761,ROOFTOP,no
MED-100631,Immediate Health Associates,10330 Sawmill Pkwy,Powell,OH,43065,"Columbus, OH",40.145589,-83.094434,ROOFTOP,no
MED-100721,Dr. Edward Arcy Family Practice,10330 Sawmill Pkwy,Powell,OH,43065,"Columbus, OH",40.145589,-83.094434,ROOFTOP,no
MED-100728,Mauk Urgent Care - Marion,1036 Mt Vernon Ave,Marion,OH,43302,"Columbus, OH",40.580807,-83.105869,ROOFTOP,no
MED-100653,U.S. Health Works,4821 Roberts Rd,Columbus,OH,43228,"Columbus, OH",40.0029803,-83.1360293,ROOFTOP,no
MED-101137,Hillard Family Medicine,3958 Leap Rd,Hilliard,OH,43026,"Columbus, OH",40.033949,-83.138614,ROOFTOP,no
MED-100842,Dr. Steven Lunz,2960 Mack Rd,Fairfield,OH,45014,Cincinnati,39.3121547,-84.5196973,ROOFTOP,no
MED-100810,"Colerain Urgent Care, LLC",3645 Stone Creek Blvd,Cincinnati,OH,45251,Cincinnati,39.2529296,-84.6002779,RANGE_INTERPOLATED,no
MED-100839,Internal Medicine of Southeastern Indiana,1088 N State Rd 229,Batesville,IN,47006,Cincinnati,39.3144463,-85.2082416,RANGE_INTERPOLATED,no
MED-100185,Piedmont Health Group,103 Little Mountain Rd,Ninety Six,SC,29666,Greenvll-Spart-Ashevll-And,34.1732395,-82.0343476,RANGE_INTERPOLATED,no
MED-100851,Hatfield Clinic,210 Overland Dr,Greenwood,SC,29646,Greenvll-Spart-Ashevll-And,34.1703029,-82.157113,ROOFTOP,no
MED-100183,Piedmont Health Group,105 Vinecrest Ct,Greenwood,SC,29646,Greenvll-Spart-Ashevll-And,34.160679,-82.176011,ROOFTOP,no
MED-100754,Piedmont Health Group,105 Vinecrest Ct,Greenwood,SC,29646,Greenvll-Spart-Ashevll-And,34.160679,-82.176011,ROOFTOP,no
MED-100912,Piedmont Health Group,105 Vinecrest Ct,Greenwood,SC,29646,Greenvll-Spart-Ashevll-And,34.160679,-82.176011,ROOFTOP,no
MED-100186,Piedmont Health Group,3410 Cokesbury Rd,Hodges,SC,29653,Greenvll-Spart-Ashevll-And,34.27183,-82.192308,ROOFTOP,no
MED-100184,Piedmont Health Group,1228 Hwy 72 W,Greenwood,SC,29647,Greenvll-Spart-Ashevll-And,34.195018,-82.192773,ROOFTOP,no
MED-100835,Simpsonville Family Practice,1336 S Carolina 14,Simpsonville,SC,29681,Greenvll-Spart-Ashevll-And,34.790464,-82.256968,ROOFTOP,no
MED-100896,Piedmont Family Practice,115 Beattie Park Rd,Piedmont,SC,29673,Greenvll-Spart-Ashevll-And,34.699262,-82.47012,ROOFTOP,no
MED-100879,Haywood Women's Medical Center,35 Facility Dr,Clyde,NC,28721,Greenvll-Spart-Ashevll-And,35.5269939,-82.9411211,RANGE_INTERPOLATED,no
MED-101175,Between the Lakes Primary Care,106 Ram Cat Alley,Seneca,SC,29678,Greenvll-Spart-Ashevll-And,34.68468,-82.954367,ROOFTOP,no
MED-101028,Blue Ridge Women's Center,103 Carter Park Dr,Seneca,SC,29678,Greenvll-Spart-Ashevll-And,34.6847939,-82.988142,ROOFTOP,no
MED-101162,Digestive and Liver Disease Center of San Antonio,12602 Toepperwein Rd,San Antonio,TX,78233,San Antonio,29.553317,-98.346159,ROOFTOP,no
MED-101330,Baptist Healthy Women's Center,5253 Walzem Rd,San Antonio,TX,78218,San Antonio,29.511161,-98.385729,ROOFTOP,no
MED-101328,Rigsby Healthy Women Clinic,2000 SE Loop 410,San Antonio,TX,78220,San Antonio,29.402276,-98.387507,ROOFTOP,no
MED-100146,Century Regional Health Care,32665 U.S. 281 N,Bulverde,TX,78163,San Antonio,29.7742599,-98.427302,RANGE_INTERPOLATED,no
MED-100143,Alamo City Medical Group,2235 Thousand Oaks,San Antonio,TX,78232,San Antonio,29.587318,-98.451355,ROOFTOP,no
MED-101241,Stone Oak Urgent Care & Family Practice,115 Gallery Cir,San Antonio,TX,78258,San Antonio,29.613015,-98.491397,ROOFTOP,no
MED-101139,"Zia Surgical Associates/Drs. Fischer, Hall and Tuchgen/Stone Oak Medical",19016 Stone Oak Pkwy,San Antonio,TX,78258,San Antonio,29.618498,-98.49402,ROOFTOP,no
MED-100289,Dr. Julian Cantu,600 Division Ave,San Antonio,TX,78214,San Antonio,29.3794494,-98.5111438,ROOFTOP,no
MED-101103,Baptist Medical Center/Healthy Women's Center,2614 W Commerce St,San Antonio,TX,78207,San Antonio,29.4278719,-98.5242211,RANGE_INTERPOLATED,no
MED-101041,Bexar Diagnostic Medicine Associates,5430 Fredericksburg Rd,San Antonio,TX,78229,San Antonio,29.507664,-98.563106,ROOFTOP,no
MED-101329,Gateway Healthy Women Center,7121 W Hwy 90,San Antonio,TX,78227,San Antonio,29.4002792,-98.6381113,RANGE_INTERPOLATED,no
MED-100578,Procare Internal Medicine Associates,11212 Texas 151,San Antonio,TX,78251,San Antonio,29.466823,-98.696398,ROOFTOP,no
MED-100104,Hill Country Family Medicine Center,114 Trade Ave,Boerne,TX,78006,San Antonio,29.816014,-98.747536,ROOFTOP,no
MED-100960,Frio Regional Hospital,200 S I35,Pearsall,TX,78061,San Antonio,28.036219,-99.359714,ROOFTOP,no
MED-101045,Marshall Medical Associates,214 E Michigan Ave,Albion,MI,49224,Grand Rapids-Kalmzoo-B.Crk,42.2468401,-84.7512402,RANGE_INTERPOLATED,no
MED-101044,Marshall Medical ASsociates ,1174 W Michigan Ave,Marshall,MI,49068,Grand Rapids-Kalmzoo-B.Crk,42.2721886,-84.9810581,ROOFTOP,no
MED-101151,Select Health,436 Marshall St,Coldwater,MI,49036,Grand Rapids-Kalmzoo-B.Crk,41.9541409,-85.0004901,RANGE_INTERPOLATED,no
MED-101341,DayOne Family Healthcare,363 Fremont St,Battle Creek,MI,49017,Grand Rapids-Kalmzoo-B.Crk,42.3333363,-85.1775647,RANGE_INTERPOLATED,no
MED-100602,Advanced Cardiac Health Care,601 John St,Kalamazoo,MI,49007,Grand Rapids-Kalmzoo-B.Crk,42.2855143,-85.5804185,ROOFTOP,no
MED-100909,Cherokee Health Clinic,395 Northwood Dr,Centre,AL,35960,"Birmingham (Ann, Tusc)",34.1628468,-85.6397642,RANGE_INTERPOLATED,no
MED-101059,Special Care for Women,1465 1st Ave SW,Jacksonville,AL,36265,"Birmingham (Ann, Tusc)",33.7866179,-85.7649954,RANGE_INTERPOLATED,no
MED-100393,Ashland Family Care,83745 Alabama 9,Ashland,AL,36251,"Birmingham (Ann, Tusc)",33.2772968,-85.8223368,RANGE_INTERPOLATED,no
MED-100315,Craddock Health Care Center,209 W Spring St,Sylacauga,AL,35150,"Birmingham (Ann, Tusc)",33.1657806,-86.2534977,RANGE_INTERPOLATED,no
MED-101086,"Eastside Women's Specialists, PC",48 Medical Park Dr E,Birmingham,AL,35235,"Birmingham (Ann, Tusc)",33.5963949,-86.6678005,ROOFTOP,no
MED-101141,Inverness Family Medicine,4902 Vallydalle Rd,Birmingham,AL,35242,"Birmingham (Ann, Tusc)",33.3986189,-86.716818,ROOFTOP,no
MED-100939,Henderson & Walton Women's Center,806 St. Vincent's Dr,Birmingham,AL,35205,"Birmingham (Ann, Tusc)",33.5091085,-86.7884268,RANGE_INTERPOLATED,no
MED-100940,Henderson & Walton Women's Center,806 St. Vincent's Dr,Birmingham,AL,35205,"Birmingham (Ann, Tusc)",33.5091085,-86.7884268,RANGE_INTERPOLATED,no
MED-100825,Henderson Walton Women's Center,806 St. Vincent's Dr,Birmingham,AL,35205,"Birmingham (Ann, Tusc)",33.5091085,-86.7884268,RANGE_INTERPOLATED,no
MED-100522,Birmingham OB/GYN,800 St. Vincent's Dr,Birmingham,AL,35205,"Birmingham (Ann, Tusc)",33.5091127,-86.7884341,RANGE_INTERPOLATED,no
MED-100292,Premier Medical,3143 Pelham Pkwy,Pelham,AL,35124,"Birmingham (Ann, Tusc)",33.2876139,-86.8105545,RANGE_INTERPOLATED,no
MED-100893,Premier Medical,3143 Pelham Pkwy,Pelham,AL,35124,"Birmingham (Ann, Tusc)",33.2876139,-86.8105545,RANGE_INTERPOLATED,no
MED-100231,Warrior Medical Associates,100 Dana Rd,Warrior,AL,35180,"Birmingham (Ann, Tusc)",33.800623,-86.818068,ROOFTOP,no
MED-101173,Adamsville Family Medicine,3915 Veterans Memorial Pkwy,Adamsville,AL,35005,"Birmingham (Ann, Tusc)",33.5862635,-86.9312606,RANGE_INTERPOLATED,no
MED-101062,Stephen's Women Center,985 9th Ave SW,Bessemer,AL,35020,"Birmingham (Ann, Tusc)",33.3967413,-86.9688099,RANGE_INTERPOLATED,no
MED-101100,Jerry McLane Internal Medicine,915 Medical Center Dr,Bessemer,AL,35022,"Birmingham (Ann, Tusc)",33.371537,-86.9892121,RANGE_INTERPOLATED,no
MED-101077,West Jefferson Internal Medicine,1088 9th Ave SW,Bessemer,AL,35022,"Birmingham (Ann, Tusc)",33.37676,-86.989816,ROOFTOP,no
MED-100704,Alabama Multi-Specialty,922 Fairfax Park,Tuscaloosa,AL,35406,"Birmingham (Ann, Tusc)",33.2389413,-87.5484461,RANGE_INTERPOLATED,no
MED-100933,Connor Rich & Associates,207 House Ave,Camp Hill,PA,17011,Harrisburg-Lncstr-Leb-York,40.253832,-76.917102,ROOFTOP,no
MED-100386,Dr. Hope Barkhurst,2095 N Dolores Rd,Cortez,CO,81321,Albuquerque-Santa Fe,37.370728,-108.555056,ROOFTOP,no
MED-101104,Choctaw Family Medicine,15809 NE 23rd St,Choctaw,OK,73020,Oklahoma City,35.4931954,-97.2557187,RANGE_INTERPOLATED,no
MED-100227,"Shahla Medical Associates, PA",1141 Beach Blvd,Jacksonville,FL,32250,Jacksonville,30.2882951,-81.4017446,RANGE_INTERPOLATED,no
MED-100542,Coastal Care Medical Center,10909 Atlantic Blvd,Jacksonville,FL,32225,Jacksonville,30.325139,-81.518215,ROOFTOP,no
MED-100584,A Place For Women,6817 S Point Pkwy,Jacksonville,FL,32216,Jacksonville,30.2612727,-81.5879488,ROOFTOP,no
MED-100392,North Florida Medical Associates,4131 University Blvd,Jacksonville,FL,32216,Jacksonville,30.281582,-81.601859,ROOFTOP,no
MED-100566,Dr. Ciceron V. Lazo,6028 Bennett Rd,Jacksonville,FL,32216,Jacksonville,30.2809751,-81.6019944,ROOFTOP,no
MED-100918,First Coast Medical Center,13453 N Main St,Jacksonville,FL,32218,Jacksonville,30.4813799,-81.6263821,ROOFTOP,no
MED-100263,Dr. Elyssa Blissenbach,2065 Herschel St,Jacksonville,FL,32204,Jacksonville,30.312906,-81.682666,ROOFTOP,no
MED-100308,North Florida Medical Associates,2105 Park St,Jacksonville,FL,32204,Jacksonville,30.3135176,-81.6836977,ROOFTOP,no
MED-100216,Fleming Island Family Medicine,1570 Island Lane,Orange Park,FL,32003,Jacksonville,30.1030959,-81.7104526,RANGE_INTERPOLATED,no
MED-101088,Clay Pain/Medical Clinic,1564 Kingsley Ave,Orange Park,FL,32073,Jacksonville,30.164208,-81.729034,ROOFTOP,no
MED-100376,Family Medicine and Rehab,7685 103rd St,Jacksonville,FL,32210,Jacksonville,30.2484697,-81.7748546,ROOFTOP,no
MED-100052,"Tennessee Heart, PLLC",228 W 4th St,Cookville,TN,38501,Memphis,36.168242,-85.51069,ROOFTOP,no
MED-101109,New Hope Family Health center,249 Harderman St,Grand Junction,TN,38039,Memphis,35.0469724,-89.1855491,RANGE_INTERPOLATED,no
MED-101274,Mcknight Clinic,25 Woodbridge Rd,Somerville,TN,38068,Memphis,35.2418509,-89.36346,ROOFTOP,no
MED-101092,The Strong Heart Clinic,1300 Access Rd,Oxford,MS,38655,Memphis,34.352598,-89.5198825,RANGE_INTERPOLATED,no
MED-100952,Collierville Orthopedic & Sports Medicine,1458 W Poplar Ave,Collierville,TN,38017,Memphis,35.048082,-89.710866,ROOFTOP,no
MED-100951,Southwind Medical Specialist,3725 Champion Hills Dr,Memphis,TN,38125,Memphis,35.047299,-89.771905,ROOFTOP,no
MED-101007,Southwind Medical Specialist,3725 Champion Hills Dr,Memphis,TN,38125,Memphis,35.047299,-89.771905,ROOFTOP,no
MED-101179,Stern Cardiovascular Center,76 Tabb Dr,Munford,TN,38058,Memphis,35.443964,-89.791728,ROOFTOP,no
MED-100165,"Family Physicians Group, PC",8110 Cordova Rd,Cordova,TN,38016,Memphis,35.158668,-89.792495,ROOFTOP,no
MED-100021,Stern Cardiovascular Center,8060 Wolf River Blvd,Memphis,TN,38138,Memphis,35.111052,-89.794087,ROOFTOP,no
MED-100022,Stern Cardiovascular ,8060 Wolf River Blvd,Germantown,TN,38138,Memphis,35.111052,-89.794087,ROOFTOP,no
MED-100164,UT Medical Group,7945 Wolf River Blvd,Germantown,TN,38183,Memphis,35.110676,-89.798321,ROOFTOP,no
MED-100508,UT Medical Group,7945 Wolf River Blvd,Germantown,TN,38138,Memphis,35.110676,-89.798321,ROOFTOP,no
MED-100509,UT Medical Group,7945 Wolf River Blvd,Germantown,TN,38138,Memphis,35.110676,-89.798321,ROOFTOP,no
MED-100510,UT Medical Group,7945 Wolf River Blvd,Germantown,TN,38138,Memphis,35.110676,-89.798321,ROOFTOP,no
MED-100511,UT Medical Group,7945 Wolf River Blvd,Germantown,TN,38138,Memphis,35.110676,-89.798321,ROOFTOP,no
MED-100948,"Memphis Obstetrics and Gynecological Association, PC",7865 Educators Ln,Bartlett,TN,38133,Memphis,35.20237,-89.80068,ROOFTOP,no
MED-100946,"Memphis Obstetrics and Gynecological Association, PC",7705 Poplar Ave,Germantown,TN,38138,Memphis,35.0915061,-89.8062133,RANGE_INTERPOLATED,no
MED-100945,"Memphis Obstetrics and Gynecological Association, PC",7705 Poplar Ave,Germantown,TN,38138,Memphis,35.0915061,-89.8062133,RANGE_INTERPOLATED,no
MED-100798,Germantown Minor Medical,2018 S Germantown Rd,Germantown,TN,38138,Memphis,35.0941193,-89.8081593,RANGE_INTERPOLATED,no
MED-100732,The Family Physicians Group,7685 Winchester Rd,Memphis,TN,38125,Memphis,35.0499462,-89.8095161,RANGE_INTERPOLATED,no
MED-100303,Sutherland Cardiology,7460 Wolf River Blvd,Germantown,TN,38138,Memphis,35.115457,-89.813661,ROOFTOP,no
MED-100649,Bartlett Internal Medicine,6570 Summer Oaks Cove,Bartlett,TN,38134,Memphis,35.202055,-89.844166,ROOFTOP,no
MED-100944,"Memphis Obstetrics and Gynecological Association, PC",6215 Humphreys Blvd,Memphis,TN,38120,Memphis,35.127403,-89.85662,ROOFTOP,no
MED-100027,Memphis Heart Clinic,6025 Walnut Grove Rd,Germantown,TN,38120,Memphis,35.12946,-89.859995,ROOFTOP,no
MED-100028,Memphis Heart Clinic,6025 Walnut Grove Rd,Memphis,TN,38120,Memphis,35.12946,-89.859995,ROOFTOP,no
MED-100042,"Threlkeld Threlkeld & Omer, PLLC",1068 Cresthaven Rd,Memphis,TN,38119,Memphis,35.1022972,-89.8749942,ROOFTOP,no
MED-101277,The Family Physicians Group,496 Perkins Ext,Memphis,TN,38117,Memphis,35.117545,-89.907919,MANUAL,yes
MED-100947,"Memphis Obstetrics and Gynecological Association, PC",7900 Airways Blvd ,Southhaven,MS,38671,Memphis,34.9769421,-89.9898604,RANGE_INTERPOLATED,no
MED-100966,Stern Cardiovascular Center,7362 Southcrest Pkwy,South Haven,MS,38671,Memphis,34.9726552,-89.9954719,RANGE_INTERPOLATED,no
MED-101006,Stern Cardiovascular Center,7362 Southcrest Pkwy,Southhaven,MS,38671,Memphis,34.9692154,-89.9962019,RANGE_INTERPOLATED,no
MED-100163,UT Medical Group,1325 Eastmoreland Ave,Memphis,TN,38104,Memphis,35.13465,-90.017166,ROOFTOP,no
MED-100949,Peabody Family Care,1325 Eastmoreland Ave,Memphis,TN,38104,Memphis,35.13465,-90.017166,ROOFTOP,no
MED-101133,"Gay Fulkerson, MD",310 S Main St,Leitchfield,KY,42754,Louisville,37.4771301,-86.294164,RANGE_INTERPOLATED,no
MED-100848,Dr. Jose Monteiro,211 Milliken Blvd,Fall River,MA,02721,Providence-New Bedford,41.700521,-71.159718,ROOFTOP,no
MED-101183,"Daniel Hochberger, MD",400 Pawtucket Ave,Rumford,RI,02916,Providence-New Bedford,41.849227,-71.355212,ROOFTOP,no
MED-100788,Bay St. Louis- Urgent Care,802 U.S. 90,Bay St. Louis,MS,39520,New Orleans,30.3158433,-89.3493972,RANGE_INTERPOLATED,no
MED-100394,Dr. Alix Bouchette,230 Meadowcrest St,Gretna,LA,70056,New Orleans,29.8818821,-90.0266292,RANGE_INTERPOLATED,no
MED-100557,Midtown Medical,3500 St. Charle's Ave,New Orleans,LA,70115,New Orleans,29.927384,-90.092845,ROOFTOP,no
MED-100769,United Med Care-Covington,73015 Louisiana 25,Covington,LA,70435,New Orleans,30.500714,-90.108588,ROOFTOP,no
MED-100781,"Dr. James Robinson, MD",180 Greenbriar Blvd,Covington,LA,70433,New Orleans,30.457293,-90.135592,ROOFTOP,no
MED-100496,Urgent Care of Metairie,1937 Veterans Blvd,Metairie,LA,70005,New Orleans,30.0023814,-90.1448691,ROOFTOP,no
MED-100770,East Jefferson After Hours,2215 Veterans Blvd,Metairie,LA,70002,New Orleans,30.0028933,-90.1473391,RANGE_INTERPOLATED,no
MED-100970,Internal Medicine & Infectious Disease Associates,4315 Houma Blvd,Metairie ,LA,70006,New Orleans,30.0148081,-90.1818453,ROOFTOP,no
MED-100886,Sunnyside Family Practice,4420 Conlin St,Metairie,LA,70006,New Orleans,30.0175601,-90.197651,RANGE_INTERPOLATED,no
MED-100495,PMA Medical Treatment,613 Williams Blvd,Kennar,LA,70062,New Orleans,29.9772566,-90.245549,RANGE_INTERPOLATED,no
MED-100771,East Jefferson After Hours,708 W Esplanade Ave,Kenner,LA,70065,New Orleans,30.0215874,-90.2583364,RANGE_INTERPOLATED,no
MED-100808,Coleman & Work OBGYN,200 W Esplanade ,Kenner,LA,70065,New Orleans,30.0231754,-90.2713489,ROOFTOP,no
MED-100672,Family Doctor Clinic of LaPlace,429 W Airline Hwy,LaPlace,LA,70068,New Orleans,30.0682992,-90.4835414,ROOFTOP,no
MED-101030,Autumn Road Family Practice,904 Autumn Rd,Little Rock,AR,72211,Little Rock-Pine Bluff,34.7461935,-92.4028374,RANGE_INTERPOLATED,no
MED-100854,"Dr.Yusuf M. Dincer, M.D",319 S Manning Blvd,Albany,NY,12208,Albany-Schenectady-Troy,42.655652,-73.803924,ROOFTOP,no
MED-100845,"Jerome Block, MD",6048 S Sheridan Rd,Tulsa,OK,74145,Tulsa,36.0776372,-95.9043333,RANGE_INTERPOLATED,no
MED-100782,"Edward Hubach, D.O.",105 Sycamore St,Medway,OH,45341,Dayton,39.882495,-84.010428,ROOFTOP,no
MED-101190,Dr. Thomas Henderson,4120 W Franklin St,Bellbrook,OH,45305,Dayton,39.638746,-84.094684,ROOFTOP,no
MED-101226,Sugarcreek Family Medicine,4403 OH Rte 725,Bellbrook,OH,45305,Dayton,39.6379976,-84.1065927,RANGE_INTERPOLATED,no
MED-100523,Northeast Family Practice,6255 Chamberburg Rd,Huber Heights,OH,45424,Dayton,39.847556,-84.115047,ROOFTOP,no
MED-100536,Huber Heights Family Practice,8501 Old Troy Pike Pkwy,Huber Heights,OH,45424,Dayton,39.8775095,-84.1368624,RANGE_INTERPOLATED,no
MED-101228,Contemporary OB/GYN,8701 Old Troy Pike Pkwy,Huber Heights,OH,45424,Dayton,39.8789116,-84.1375772,ROOFTOP,no
MED-101227,Buck Eye Family Practice,8701 Old Troy Pike Pkwy,Huber Heights,OH,45424,Dayton,39.8789116,-84.1375772,ROOFTOP,no
MED-100695,Pri-Med Physicians: Kettering,4441 Far Hills Ave,Kettering,OH,45429,Dayton,39.682534,-84.1671158,RANGE_INTERPOLATED,no
MED-100647,Dayton Cardiology Vascular,1126 S Main St,Dayton,OH,45402,Dayton,39.7421325,-84.1869987,RANGE_INTERPOLATED,no
MED-101229,Contemporary OB/GYN of Centerville,7740 Washington Village Dr,Centerville,OH,45459,Dayton,39.632738,-84.192702,ROOFTOP,no
MED-100574,Providence General Surgeons,7740 Washington Village Dr,Centerville,OH,45459,Dayton,39.632738,-84.192702,ROOFTOP,no
MED-100256,Dayton Primary Care,301 W 1st St,Dayton,OH,45402,Dayton,39.7617449,-84.1976307,ROOFTOP,no
MED-100490,Dayton Internal Medicine,1 Elizabeth Place,Dayton,OH,45408,Dayton,39.7460472,-84.1996631,RANGE_INTERPOLATED,no
MED-100487,Horizon Women's Health,1 Elizabeth Place,Dayton,OH,45408,Dayton,39.7460472,-84.1996631,RANGE_INTERPOLATED,no
MED-100251,St. E's Urgent Care,1 Elizabeth Pl,Dayton,OH,45408,Dayton,39.7460472,-84.1996631,RANGE_INTERPOLATED,no
MED-100474,Dr. Sanford M. Wolfe,1 Elizabeth Place,Dayton,OH,45408,Dayton,39.7460472,-84.1996631,RANGE_INTERPOLATED,no
MED-100922,Primed Physicians: Dayton,1152 W 3rd St,Dayton,OH,45402,Dayton,39.755633,-84.213489,ROOFTOP,no
MED-100465,PMG Center for Medical Research,2912 Springboro West,Dayton,OH,45439,Dayton,39.7136947,-84.2221383,ROOFTOP,no
MED-101066,Crossroads Medical Center,505 Corporate Center Dr,Vandalia,OH,45377,Dayton,39.88443,-84.224604,ROOFTOP,no
MED-100466,Family Health Center,70 Remick Blvd,Springboro,OH,45066,Dayton,39.5792464,-84.2247701,RANGE_INTERPOLATED,no
MED-100681,Family Care Center,77 E Woodbury Dr,Dayton,OH,45415,Dayton,39.8279489,-84.245032,ROOFTOP,no
MED-101278,Colbert Family Health & Wellness,2580 Shiloh Springs Rd,Trotwood,OH,45426,Dayton,39.817772,-84.284743,ROOFTOP,no
MED-101065,"Krisell Fedrizzi, DO",1870 Dayton Pike,Germantown,OH,45327,Dayton,39.6349142,-84.3527413,RANGE_INTERPOLATED,no
MED-101067,Watson Family Practice,1217 W Market St,Germantown,OH,45327,Dayton,39.6223529,-84.38542,ROOFTOP,no
MED-100488,Germantown Medical Associates,1265 W Market St,Germantown,OH,45327,Dayton,39.622404,-84.3861079,ROOFTOP,no
MED-100477,Farmersville Medical Center,49 E Center St,Farmersville,OH,45325,Dayton,39.680173,-84.425726,ROOFTOP,no
MED-101070,Urgent Care of Fairfield,3335 Princeton Rd,Hamilton,OH,45011,Dayton,39.3901309,-84.504413,ROOFTOP,no
MED-101056,Cardiovascular Consultants,331 Laidley St,Charleston,WV,25301,Charleston-Huntington,38.3530333,-81.6333508,RANGE_INTERPOLATED,no
MED-100849,Addison Kidney Consultants,331 Laidley St,Charleston,WV,25301,Charleston-Huntington,38.3530333,-81.6333508,RANGE_INTERPOLATED,no
MED-100599,Michigan Health Specialist,1063 W Hill Rd,Flint,MI,48507,Flint-Saginaw-Bay City,42.943605,-83.694297,ROOFTOP,no
MED-100843,"Dr. Paul Simmons, MD, PLLC",2981 Health Pkwy,Union Charter Township,MI,48858,Flint-Saginaw-Bay City,43.5980631,-84.7523973,GEOMETRIC_CENTER,no
MED-100873,Piedmont Preferred Women's Healthcare,6890 Greensboro Rd,Ridgeway,VA,24148,Roanoke-Lynchburg,36.5960667,-79.8626264,RANGE_INTERPOLATED,no
MED-100158,El Dorado Urgent Care,1400 N Wilmot Rd,Tucson,AZ,85712,Tucson (Sierra Vista),32.2396882,-110.8577678,RANGE_INTERPOLATED,no
MED-100887,Urgent Care Express,495 N Pinal Pkwy,Florence,AZ,85232,Tucson (Sierra Vista),33.03612,-111.37834,MANUAL,yes
MED-100612,"Prairie Star Family Practice, PA",1210 N Washington,Plainville,KS,67663,Wichita-Hutchinson Plus,39.2238129,-99.2983216,RANGE_INTERPOLATED,no
MED-100103,Ministry Medical Group,190 Grand Seasons Dr,Waupaca,WI,54981,Green Bay-Appleton,44.358344,-89.119614,ROOFTOP,no
MED-100684,Woodley Park Internal Medicine,3909 Woodley Rd,Toledo,OH,43606,Toledo,41.688809,-83.635799,ROOFTOP,no
MED-101099,Soap Lake Family Medicine,22 Washington 28 W,Soap Lake,WA,98851,Spokane,47.3762664,-119.4901282,RANGE_INTERPOLATED,no
MED-101036,"F. P. Associates, PC",1103 Galvin Rd S,Bellevue,NE,68005,Omaha,41.149286,-95.914764,ROOFTOP,no
MED-100907,Richland Primary Health Care,1520 Laurel St,Columbia,SC,29201,"Columbia, SC",34.010714,-81.030996,ROOFTOP,no
MED-100921,Palmetto Family Primary Health Care Center,1136 Kincaide Bridge Rd,Winnsboro,SC,29180,"Columbia, SC",34.372088,-81.1031299,ROOFTOP,no
MED-100903,Emmanuel Family Clinic,2531 Evans St,Newberry,SC,29108,"Columbia, SC",34.2885505,-81.609115,RANGE_INTERPOLATED,no
MED-100697,Dr. Phyllis Harris,2250 Turk Hill Rd,Victor ,NY,14564,"Rochester, NY",43.052507,-77.4299039,ROOFTOP,no
MED-100846,Southeast Medical Associates,100 Cross Keys Office Park,Fairport,NY,14450,"Rochester, NY",43.0707988,-77.4341507,MANUAL,yes
MED-100807,"Gene Zito, MD & Marshall Goldstein, MD",61 Monroe Ave,Pittsford,NY,14534,"Rochester, NY",43.091094,-77.521578,ROOFTOP,no
MED-100964,Portland Physicians,1299 Portland Ave,Rochester,NY,14621,"Rochester, NY",43.1897694,-77.5842862,RANGE_INTERPOLATED,no
MED-100961,Parma Health Center,1024 Hilton Parma Corners Rd,Hilton,NY,14468,"Rochester, NY",43.272079,-77.790253,ROOFTOP,no
MED-100034,"Family Practice, PLLC",8100 Oswego Rd,Liverpool,NY,13090,Syracuse,43.163713,-76.234332,ROOFTOP,no
MED-100035,"Family Practice, PLLC",8280 Willett Pkwy,Baldswinsville,NY,13027,Syracuse,43.171448,-76.299111,ROOFTOP,no
MED-100326,Dr. Jeff Garber,420 Lowell Dr,Huntsville,AL,35801,Huntsville-Decatur (Flor),34.721364,-86.57511,ROOFTOP,no
MED-100559,Decatur Med Surg Clinic,2828 U.S. 31 S,Decatur,AL,35603,Huntsville-Decatur (Flor),34.553911,-86.9734449,RANGE_INTERPOLATED,no
MED-100505,Greenhill Family Center,351 Alabama 64,Killen,AL,35645,Huntsville-Decatur (Flor),34.9292265,-87.5247913,RANGE_INTERPOLATED,no
MED-100558,Mitchell Internal Medicine,2115 Cloyd Blvd,Florence,AL,35630,Huntsville-Decatur (Flor),34.8363854,-87.6487802,RANGE_INTERPOLATED,no
MED-100923,Family Medical Center,302 N Main St,Georgetown,IL,61846,Champaign&Sprngfld-Decatur,39.9770935,-87.6356211,RANGE_INTERPOLATED,no
MED-100664,Family Practice Medical Center,511 W Fairchild St,Danville,IL,61832,Champaign&Sprngfld-Decatur,40.1383839,-87.637023,RANGE_INTERPOLATED,no
MED-101112,Watseka Family Practice,125 S 4th St,Watseka,IL,60970,Champaign&Sprngfld-Decatur,40.7759608,-87.7327934,RANGE_INTERPOLATED,no
MED-100696,Prompt Care,401 N Mulberry St,Effingham,IL,62401,Champaign&Sprngfld-Decatur,39.125524,-88.551813,ROOFTOP,no
MED-101031,DeQueen Medical Center,1306 W Collin Raye Dr,DeQueen,AR,71832,Shreveport,34.046118,-94.3578346,RANGE_INTERPOLATED,no
MED-101032,DeQueen Medical Center,1306 W Collin Raye Dr,DeQueen,AR,71832,Shreveport,34.046118,-94.3578346,RANGE_INTERPOLATED,no
MED-101033,DeQueen Medical Center,1306 W Collin Raye Dr,DeQueen,AR,71832,Shreveport,34.046118,-94.3578346,RANGE_INTERPOLATED,no
MED-100901,San Pablo Medical Clinic,1217 Memorial Dr,Dalton,GA,30720,Chattanooga,34.788407,-84.984953,ROOFTOP,no
MED-100614,Hughston & Redmond,1713 Treasure Hills Blvd,Harlingen,TX,78550,Harlingen-Wslco-Brnsvl-McA,26.171724,-97.669342,ROOFTOP,no
MED-100987,Dr. Diana Lozano,5505 S Expwy 77,Harlingen,TX,78550,Harlingen-Wslco-Brnsvl-McA,26.1566501,-97.675595,MANUAL,yes
MED-100284,Edinburg Medical Center,1200 S 10th Ave,Edinburg,TX,78539,Harlingen-Wslco-Brnsvl-McA,26.290357,-98.165188,ROOFTOP,no
MED-101172,Tama Medical Center,1307 S Broadway St,Toledo,IA,52342,Cedar Rapids-Wtrlo-IWC&Dub,41.9804462,-92.5784826,RANGE_INTERPOLATED,no
MED-100916,"GA Carmichael, FHC",1668 W Peace St,Canton,MS,39046,"Jackson, MS",32.611699,-90.052734,ROOFTOP,no
MED-101046,East Metro Family Medical Clinic,811 U.S. 49 S,Richland,MS,39218,"Jackson, MS",32.230821,-90.167807,ROOFTOP,no
MED-100304,UnaCare,1207 N West St,Jackson,MS,39216,"Jackson, MS",32.3143109,-90.1819128,RANGE_INTERPOLATED,no
MED-101107,Clinton Wellness Center,322 U.S. 80 E,Clinton,MS,39056,"Jackson, MS",32.3335309,-90.323929,RANGE_INTERPOLATED,no
MED-100917,"GA Carmichael, FHC",116 N Hayden St,Belzoni,MS,39038,"Jackson, MS",33.190832,-90.4885624,RANGE_INTERPOLATED,no
MED-101201,Community Health Centers of the Rutland Region/Castleton Family Health Center,275 VT Rte 30 N,Bomoseen,VT,05732,Burlington-Plattsburgh,43.613975,-73.208389,ROOFTOP,no
MED-100899,Dr. Myrna A. Sanchez,183 Park St,Malone,NY,12953,Burlington-Plattsburgh,44.8585038,-74.2926234,RANGE_INTERPOLATED,no
MED-100863,Falls Community Hospital & Clinic,307 Live Oak St,Marlin,TX,76661,Waco-Temple-Bryan,31.3063204,-96.8936933,RANGE_INTERPOLATED,no
MED-100864,Falls Community Hospital & Clinic,307 Live Oak St,Marlin,TX,76661,Waco-Temple-Bryan,31.3063204,-96.8936933,RANGE_INTERPOLATED,no
MED-100865,Falls Community Hospital & Clinic,307 Live Oak St,Marlin,TX,76661,Waco-Temple-Bryan,31.3063204,-96.8936933,RANGE_INTERPOLATED,no
MED-101336,Falls Community Hospital & Clinic,307 Live Oak,Marlin,TX,76661,Waco-Temple-Bryan,31.3063204,-96.8936933,RANGE_INTERPOLATED,no
MED-100628,Hill Crest Sanger n/k/a Providence Family Health Clinic - Sanger,6614 Sanger Ave,Waco,TX,76710,Waco-Temple-Bryan,31.5199169,-97.197911,ROOFTOP,no
MED-100707,Gulf Regional Occupational Medical Center,8742 Goodwood Blvd,Baton Rouge,LA,70806,Baton Rouge,30.4425852,-91.0937179,ROOFTOP,no
MED-100706,Urgent Care of Baton Rouge,606 Colonial Dr,Baton Rouge,LA,70809,Baton Rouge,30.4451982,-91.0987158,ROOFTOP,no
MED-101019,Bayou Regional Women's Clinic,6550 Main St,Zachary,LA,70791,Baton Rouge,30.6499874,-91.1369774,ROOFTOP,no
MED-101132,Hampton Pediatrics & Family Medicine,300 Maple St,Hampton,SC,29924,Savannah,32.8691424,-81.1096003,RANGE_INTERPOLATED,no
MED-100629,Covenant Health Care Center,2222 W 24th St,Plainview,TX,79072,El Paso (Las Cruces),34.2053749,-101.732293,ROOFTOP,no
MED-100280,Palmetto Primary Care,115 Executive Pkwy,Moncks Corner,SC,29461,"Charleston, SC",33.193701,-79.984374,ROOFTOP,no
MED-101110,Thomas D. Sneeringer,477 Rte 28,Brookville,PA,15825,Johnstown-Altoona-St College,41.1606963,-79.086251,RANGE_INTERPOLATED,no
MED-100467,Dr. Dennis Thomas,3374 Greystone Way,Valdosta,GA,31605,Tallahassee-Thomasville,30.8825,-83.2954,ROOFTOP,no
MED-100504,Henderson Health Care Services,1621 Front St,Henderson,NE,68371,Lincoln & Hastings-Krny,40.782962,-97.8072238,RANGE_INTERPOLATED,no
MED-101238,"OBGYN Associates of Fort Wayne, PC",7802 W Jefferson Blvd,Fort Wayne,IN,46804,Ft. Wayne,41.03967,-85.244351,ROOFTOP,no
MED-101205,Huntington Medical Group,1601 N Jefferson St,Huntington,IN,46750,Ft. Wayne,40.890514,-85.502744,ROOFTOP,no
MED-100595,Rural Medical Clinic,804 S Walnut St,Freeman,SD,57029,Sioux Falls(Mitchell),43.3474669,-97.431789,RANGE_INTERPOLATED,no
MED-100915,Huron Clinic,111 4th St SE,Huron,SD,57350,Sioux Falls(Mitchell),44.3620602,-98.2122514,RANGE_INTERPOLATED,no
MED-100421,Cardiology Group Of Lansing,1433 E Michigan Ave,Lansing,MI,48912,Lansing,42.7337891,-84.5297869,ROOFTOP,no
MED-100756,Southcare Medical Center,2514 C Tobacco Rd,Hephzibah,GA,30815,Augusta,33.375206,-82.074825,ROOFTOP,no
MED-100575,Dr. Michelle Mason-Woodward,144 N Peachtree St,Lincolnton,GA,30817,Augusta,33.793551,-82.476912,ROOFTOP,no
MED-100757,Thomson Pediatrics & Internal Medicine,306 Mt Pleasant Rd,Thomson,GA,30824,Augusta,33.4595943,-82.5114847,RANGE_INTERPOLATED,no
MED-100621,Women for Women,1300 Franklin Ave,Normal,IL,61761,Peoria-Bloomington,40.497841,-88.991056,ROOFTOP,no
MED-100625,"Dr. Harold A. Nord, OB/GYN SC",1302 Franklin Ave,Normal,IL,61761,Peoria-Bloomington,40.4977595,-88.9915348,RANGE_INTERPOLATED,no
MED-101005,Ivy Creek of Tallapoosa ,201 Mariarden Rd,Dadeville,AL,36853,Montgomery-Selma,32.8200176,-85.7415985,RANGE_INTERPOLATED,no
MED-100365,Lake Martin Family Medicine,301 Mariarden Rd,Dadeville,AL,36853,Montgomery-Selma,32.8200176,-85.7415985,RANGE_INTERPOLATED,no
MED-100618,Montgomery Cardiovascular Associates,273 Winton M Blount Loop,Montgomery,AL,36117,Montgomery-Selma,32.377912,-86.172229,ROOFTOP,no
MED-100619,Montgomery Cardiovascular Associates,273 Winton M Blount Loop,Montgomery,AL,36116,Montgomery-Selma,32.377912,-86.172229,ROOFTOP,no
MED-100620,Montgomery Cardiovascular Associates,2119 E South Blvd,Montgomery,AL,36116,Montgomery-Selma,32.32767,-86.275613,ROOFTOP,no
MED-100862,"William Sargeant, D.O. P.C.",1758 Park Pl,Montgomery,AL,36106,Montgomery-Selma,32.368383,-86.284747,ROOFTOP,no
MED-100475,"Selma Doctors Clinic, PC",509 Parkman Ave,Selma,AL,36701,Montgomery-Selma,32.4088,-87.0284999,ROOFTOP,no
MED-100334,Selma Medical Associates,901 Medical Center Pkwy,Selma,AL,36701,Montgomery-Selma,32.4264,-87.0515,ROOFTOP,no
MED-100749,Selma Medical Associates,901 Medical Center Pkwy,Selma,AL,36701,Montgomery-Selma,32.4264,-87.0515,ROOFTOP,no
MED-100426,Central Coast Family Care,355 Daniel Dr,Santa Maria,CA,93454,SantaBarbra-SanMar-SanLuOb,34.924045,-120.432411,ROOFTOP,no
MED-100965,"Women For Women's Health, PC",682 Hemlock St,Macon,GA,31201,Macon,32.8320563,-83.6346527,RANGE_INTERPOLATED,no
MED-100821,Columbus Medical Associates,1005 Talbottom Rd,Columbus,GA,31904,"Columbus, GA",32.4840355,-84.9810006,ROOFTOP,no
MED-101189,Dr. Joseph Hurst,2101 North Ave,Columbus,GA,31904,"Columbus, GA",32.484217,-84.982304,ROOFTOP,no
MED-100662,Corpus Christi Women's Clinic,7121 S Padre Island Dr,Corpus Christi,TX,78412,Corpus Christi,27.6937904,-97.3429448,RANGE_INTERPOLATED,no
MED-100286,Family Health Physicians,5525 S Staples St,Corpus Christi,TX,78411,Corpus Christi,27.7004855,-97.3749214,ROOFTOP,no
MED-100759,"Obstetrical & Gynecological Associates of Corpus Christi, LLP",5920 Saratoga Blvd,Corpus Christi,TX,78414,Corpus Christi,27.6826847,-97.3781131,RANGE_INTERPOLATED,no
MED-100760,"Obstetrical & Gynecological Associates of Corpus Christi, LLP",5920 Saratoga Blvd,Corpus Christi,TX,78414,Corpus Christi,27.6826847,-97.3781131,RANGE_INTERPOLATED,no
MED-101064,Golden Plains Medical Plaza,202 S McGee St,Borger,TX,79007,Amarillo,35.6642708,-101.3942655,RANGE_INTERPOLATED,no
MED-100389,Clovis Family Health Care,2301 N Martin Luther King Blvd,Clovis,NM,88101,Amarillo,34.421507,-103.231274,ROOFTOP,no
MED-101196,Quay County Family Health Center,1302 E Main,Tucumcari,NM,88401,Amarillo,35.1790209,-103.7108287,RANGE_INTERPOLATED,no
MED-101192,Boone Primary Care,1605 E Broadway,Columbia,MO,65201,Columbia-Jefferson City,38.9504342,-92.3152754,ROOFTOP,no
MED-101191,Boone Internal Medicine Associates,200 E Southhampton Dr,Columbia,MO,65203,Columbia-Jefferson City,38.89908,-92.336333,ROOFTOP,no
MED-100555,Covenant Medical Group,416 Frankford Ave,Lubbock,TX,79416,Lubbock,33.591022,-101.940313,ROOFTOP,no
MED-100517,Medicine and Rheumatology ,1302 Savannah Rd,Lewes,DE,19958,Salisbury,38.7606759,-75.1535708,RANGE_INTERPOLATED,no
MED-100537,"Dr. Brookellen Rider, DO",314 Franklin Ave,Berlin,MD,21811,Salisbury,38.3302896,-75.2132208,RANGE_INTERPOLATED,no
MED-100541,Southern Delaware Medical Group,119 Neurology Way,Milford,DE,19963,Salisbury,38.9316212,-75.4553488,RANGE_INTERPOLATED,no
MED-100836,Dr. Ivanka Vassileva,4411 W Gore Blvd,Lawton,OK,73505,Wichita Falls & Lawton,34.6090332,-98.4470028,ROOFTOP,no
MED-100765,Premier healthcare center ,4833 50th St,Lubbock,TX,79414,Wichita Falls & Lawton,33.5487978,-101.9168191,RANGE_INTERPOLATED,no
MED-100623,G & G Family Medicine,209 E Main St,Hahira,GA,31632,"Albany, GA",30.9919,-83.3692,ROOFTOP,no
MED-100876,Midlands OBGYN,301 N 31st St,Norfolk,NE,68701,Sioux City,42.0359669,-97.4573921,MANUAL,yes
MED-100870,Emerald Coast OBGYN,17320 Panama City Beach Pkwy,Panama City Beach,FL,32413,Panama City,30.232749,-85.894165,ROOFTOP,no
MED-101014,Family Medical Center- OBGYN Department,1501 W 11th,Big Spring,TX,79720,Odessa-Midland,32.2393588,-101.4951687,RANGE_INTERPOLATED,no
MED-100569,St. Andrew's Bottineau Clinic,314 Ohmer St,Bottineau,ND,58318,Minot-Bismarck-Dickinson,48.8292908,-100.4492605,RANGE_INTERPOLATED,no
MED-100478,Fairlight Medical Center,3 4th St E,Williston,ND,58801,Minot-Bismarck-Dickinson,48.1475573,-103.6219418,RANGE_INTERPOLATED,no
MED-100752,Fairlight Medical Center,3 4th St East,Williston,ND,58801,Minot-Bismarck-Dickinson,48.1475573,-103.6219418,RANGE_INTERPOLATED,no
MED-100906,"Adena Clinic: Bangera Divakar, MD",211 OH Rte 250,Adena,OH,43901,Wheeling-Steubenville,40.1765957,-80.8792948,RANGE_INTERPOLATED,no
MED-100934,"Imelia Chia, MD",304 W Main St,St. Clairsville,OH,43952,Wheeling-Steubenville,40.077967,-80.9131176,RANGE_INTERPOLATED,no
MED-101177,Immediate Family Clinic,2490 Pass Rd,Biloxi,MS,39531,Biloxi-Gulfport,30.401526,-88.98239,ROOFTOP,no
MED-101113,Memorial Internal Medicine Clinic,1110 Broad Ave,Gulfport,MS,39501,Biloxi-Gulfport,30.364379,-89.115179,ROOFTOP,no
MED-100787,Urgent Care of Long Beach,200 W Railroad St ,Long Beach,MS,39560,Biloxi-Gulfport,30.350644,-89.15432,ROOFTOP,no
MED-100926,Coleman County Medical Center,310 S Pecos,Coleman,TX,76834,Abilene-Sweetwater,31.8288059,-99.4254174,ROOFTOP,no
MED-100927,Coleman County Medical Center,310 S Pecos,Coleman,TX,76834,Abilene-Sweetwater,31.8288059,-99.4254174,ROOFTOP,no
MED-100913,North Runnels Hospital,7821 Texas 153,Winters,TX,79567,Abilene-Sweetwater,31.9498438,-99.9583543,RANGE_INTERPOLATED,no
MED-100296,Montana Heart Institute,2900 12th Ave N,Billings,MT,59101,Billings,45.7928542,-108.518493,RANGE_INTERPOLATED,no
MED-100406,Fairview Clinic ,1118 Ross Clark Cir,Dothan,AL,36301,Dothan,31.2148108,-85.3616121,RANGE_INTERPOLATED,no
MED-101015,Primary Care Center,500  Hospital Dr,Trenton,TN,38382,"Jackson, TN",35.962738,-88.9391641,RANGE_INTERPOLATED,no
MED-101001,Greenwood Comprehensive Medical Group,517 U.S. 82-e Bypass,Greenwood,MS,38930,Greenwood-Greenville,33.5079319,-90.198873,ROOFTOP,no
MED-101002,Greenwood Comprehensive Medical Group,517 U.S. 82-e Bypass,Greenwood,MS,38930,Greenwood-Greenville,33.5079319,-90.198873,ROOFTOP,no
MED-100837,Ruby Valley Rural Health Clinic,210 E Crofoot St,Sheridan,MT,59749,Butte-Bozeman,45.4529669,-112.1934959,RANGE_INTERPOLATED,no
MED-100390,McKinleyville Family Practice,1735 Central Ave,McKinleyville,CA,95519,Eureka,40.936851,-124.1007085,ROOFTOP,no
MED-100660,Crossroads Health Center,4502 N Laurent St,Victoria,TX,77901,Victoria,28.8348213,-96.9931688,RANGE_INTERPOLATED,no
MED-100507,Helena OB/GYN Associates,45 Medical Park Dr,Helena,MT,59601,Helena,46.580455,-111.995302,ROOFTOP,no
MED-101145,Butte Community Health Center,445 Centennial Ave,Butte,MT,59701,Helena,45.998518,-112.541821,ROOFTOP,no
